{"type":"FeatureCollection","features":[{"type":"Feature","geometry":{"type":"LineString","coordinates":[[-3.01873,53.38729],[-3.01873,53.38726]]},"properties":{"id":"3","len":2.6}},{"type":"Feature","geometry":{"type":"LineString","coordinates":[[-2.88752,53.27878],[-2.88752,53.27878],[-2.88712,53.27897],[-2.88712,53.27896]]},"properties":{"id":"4","len":34.9}},{"type":"Feature","geometry":{"type":"LineString","coordinates":[[-2.98597,53.63324],[-2.98601,53.63328],[-2.98605,53.63332]]},"properties":{"id":"6","len":9.7}},{"type":"Feature","geometry":{"type":"LineString","coordinates":[[-2.88862,53.56338],[-2.88862,53.56338],[-2.88864,53.56337]]},"properties":{"id":"46","len":1.9}},{"type":"Feature","geometry":{"type":"LineString","coordinates":[[-2.55279,53.46788],[-2.55267,53.46788],[-2.55223,53.46792],[-2.55217,53.46794]]},"properties":{"id":"62","len":42.8}},{"type":"Feature","geometry":{"type":"LineString","coordinates":[[-2.88448,53.27894],[-2.88448,53.27894],[-2.88442,53.27897],[-2.88441,53.27896]]},"properties":{"id":"73","len":6.8}},{"type":"Feature","geometry":{"type":"LineString","coordinates":[[-3.08973,53.40466],[-3.08966,53.40467]]},"properties":{"id":"109","len":4.3}},{"type":"Feature","geometry":{"type":"LineString","coordinates":[[-2.53833,53.26937],[-2.53831,53.2692],[-2.53829,53.26911],[-2.53829,53.26909]]},"properties":{"id":"145","len":30.7}},{"type":"Feature","geometry":{"type":"LineString","coordinates":[[-2.76489,53.35509],[-2.76487,53.35511],[-2.76461,53.35539]]},"properties":{"id":"173","len":37.7}},{"type":"Feature","geometry":{"type":"LineString","coordinates":[[-3.01017,53.6449],[-3.01019,53.64491],[-3.01031,53.64484],[-3.01043,53.64478]]},"properties":{"id":"176","len":22.9}},{"type":"Feature","geometry":{"type":"LineString","coordinates":[[-2.98578,53.64481],[-2.98597,53.64492]]},"properties":{"id":"184","len":17.3}},{"type":"Feature","geometry":{"type":"LineString","coordinates":[[-2.82236,53.41376],[-2.82236,53.41376],[-2.82229,53.41375],[-2.82222,53.41373],[-2.82217,53.41371],[-2.82209,53.41367],[-2.82204,53.41365],[-2.82201,53.41363],[-2.82199,53.41362],[-2.82198,53.4136],[-2.82198,53.41359]]},"properties":{"id":"213","len":33.5}},{"type":"Feature","geometry":{"type":"LineString","coordinates":[[-2.58779,53.36532],[-2.58793,53.36544]]},"properties":{"id":"216","len":15.8}},{"type":"Feature","geometry":{"type":"LineString","coordinates":[[-2.88582,53.27822],[-2.8863,53.27855],[-2.88631,53.27856],[-2.88632,53.27857]]},"properties":{"id":"246","len":51.2}},{"type":"Feature","geometry":{"type":"LineString","coordinates":[[-2.96236,53.42666],[-2.96235,53.42664]]},"properties":{"id":"249","len":1.6}},{"type":"Feature","geometry":{"type":"LineString","coordinates":[[-2.57917,53.37729],[-2.57957,53.37744]]},"properties":{"id":"256","len":31.6}},{"type":"Feature","geometry":{"type":"LineString","coordinates":[[-2.72493,53.42686],[-2.72478,53.42668]]},"properties":{"id":"263","len":22.2}},{"type":"Feature","geometry":{"type":"LineString","coordinates":[[-2.48997,53.51231],[-2.48994,53.51224]]},"properties":{"id":"270","len":8.2}},{"type":"Feature","geometry":{"type":"LineString","coordinates":[[-2.96862,53.39886],[-2.96865,53.39887]]},"properties":{"id":"350","len":1.9}},{"type":"Feature","geometry":{"type":"LineString","coordinates":[[-2.89746,53.28251],[-2.89755,53.28209],[-2.89755,53.28208],[-2.89755,53.28208]]},"properties":{"id":"406","len":49.1}},{"type":"Feature","geometry":{"type":"LineString","coordinates":[[-2.62808,53.54213],[-2.62812,53.54214],[-2.6281,53.54233],[-2.62772,53.54232],[-2.62745,53.54231]]},"properties":{"id":"410","len":67.8}},{"type":"Feature","geometry":{"type":"LineString","coordinates":[[-2.91377,53.46479],[-2.91387,53.46493]]},"properties":{"id":"411","len":17}},{"type":"Feature","geometry":{"type":"LineString","coordinates":[[-2.82821,53.59983],[-2.82802,53.59979]]},"properties":{"id":"430","len":13}},{"type":"Feature","geometry":{"type":"LineString","coordinates":[[-2.82643,53.59967],[-2.8264,53.59967],[-2.82636,53.59968],[-2.82636,53.59969]]},"properties":{"id":"431","len":6.7}},{"type":"Feature","geometry":{"type":"LineString","coordinates":[[-2.5991,53.38516],[-2.59909,53.38514],[-2.59905,53.38494],[-2.59904,53.38489]]},"properties":{"id":"442","len":30.7}},{"type":"Feature","geometry":{"type":"LineString","coordinates":[[-2.56633,53.39623],[-2.56636,53.39626]]},"properties":{"id":"456","len":4.2}},{"type":"Feature","geometry":{"type":"LineString","coordinates":[[-2.8939,53.35134],[-2.8939,53.35134],[-2.89518,53.35036],[-2.89526,53.35039]]},"properties":{"id":"517","len":144.8}},{"type":"Feature","geometry":{"type":"LineString","coordinates":[[-2.45694,53.22106],[-2.45692,53.22101],[-2.45692,53.221]]},"properties":{"id":"522","len":6.3}},{"type":"Feature","geometry":{"type":"LineString","coordinates":[[-2.46703,53.23917],[-2.46701,53.23917],[-2.46704,53.23922],[-2.46706,53.23922]]},"properties":{"id":"546","len":8.4}},{"type":"Feature","geometry":{"type":"LineString","coordinates":[[-2.78311,53.46842],[-2.78342,53.46841]]},"properties":{"id":"584","len":20.7}},{"type":"Feature","geometry":{"type":"LineString","coordinates":[[-2.63062,53.53931],[-2.63054,53.53944],[-2.63052,53.53948]]},"properties":{"id":"588","len":20.6}},{"type":"Feature","geometry":{"type":"LineString","coordinates":[[-2.93158,53.38136],[-2.93157,53.38124],[-2.93155,53.38111],[-2.93153,53.38096],[-2.93147,53.3809]]},"properties":{"id":"589","len":52.3}},{"type":"Feature","geometry":{"type":"LineString","coordinates":[[-2.67846,53.74577],[-2.67845,53.74575],[-2.67843,53.74574],[-2.67835,53.74558]]},"properties":{"id":"597","len":22.9}},{"type":"Feature","geometry":{"type":"LineString","coordinates":[[-2.72528,53.48723],[-2.72526,53.48727]]},"properties":{"id":"660","len":4.6}},{"type":"Feature","geometry":{"type":"LineString","coordinates":[[-2.71058,52.98168],[-2.71042,52.98158]]},"properties":{"id":"662","len":16}},{"type":"Feature","geometry":{"type":"LineString","coordinates":[[-2.93061,53.59704],[-2.93048,53.59697],[-2.93028,53.59687]]},"properties":{"id":"666","len":29}},{"type":"Feature","geometry":{"type":"LineString","coordinates":[[-2.9197,53.60736],[-2.91965,53.60738]]},"properties":{"id":"678","len":3.8}},{"type":"Feature","geometry":{"type":"LineString","coordinates":[[-2.47103,53.08418],[-2.47095,53.08421]]},"properties":{"id":"895","len":6}},{"type":"Feature","geometry":{"type":"LineString","coordinates":[[-2.51641,53.25837],[-2.5162,53.25833],[-2.51606,53.25831],[-2.51605,53.25831],[-2.51605,53.25828],[-2.51603,53.25818]]},"properties":{"id":"903","len":39.2}},{"type":"Feature","geometry":{"type":"LineString","coordinates":[[-2.6111,53.44289],[-2.611,53.44291]]},"properties":{"id":"921","len":6.6}},{"type":"Feature","geometry":{"type":"LineString","coordinates":[[-3.06916,53.37055],[-3.06924,53.37055]]},"properties":{"id":"924","len":5.7}},{"type":"Feature","geometry":{"type":"LineString","coordinates":[[-2.66982,53.7247],[-2.66973,53.72475]]},"properties":{"id":"980","len":8.5}},{"type":"Feature","geometry":{"type":"LineString","coordinates":[[-2.7305,53.45119],[-2.73142,53.45121],[-2.73167,53.45106]]},"properties":{"id":"995","len":85}},{"type":"Feature","geometry":{"type":"LineString","coordinates":[[-2.50338,53.73191],[-2.50319,53.732]]},"properties":{"id":"1006","len":15.9}},{"type":"Feature","geometry":{"type":"LineString","coordinates":[[-2.88582,53.27822],[-2.88509,53.2786]]},"properties":{"id":"1119","len":64}},{"type":"Feature","geometry":{"type":"LineString","coordinates":[[-2.98813,53.39848],[-2.98789,53.39855]]},"properties":{"id":"1130","len":17.7}},{"type":"Feature","geometry":{"type":"LineString","coordinates":[[-2.89425,53.48378],[-2.89417,53.48378]]},"properties":{"id":"1131","len":5.2}},{"type":"Feature","geometry":{"type":"LineString","coordinates":[[-2.8584,53.46489],[-2.85839,53.46484]]},"properties":{"id":"1132","len":5.2}},{"type":"Feature","geometry":{"type":"LineString","coordinates":[[-2.94483,53.51277],[-2.94498,53.51272]]},"properties":{"id":"1136","len":10.9}},{"type":"Feature","geometry":{"type":"LineString","coordinates":[[-2.47368,53.72098],[-2.47366,53.72105]]},"properties":{"id":"1158","len":7}},{"type":"Feature","geometry":{"type":"LineString","coordinates":[[-2.71316,53.74899],[-2.71317,53.74898],[-2.71324,53.7489],[-2.71332,53.7488],[-2.71339,53.74872],[-2.71351,53.74858],[-2.71367,53.74843],[-2.71386,53.74824]]},"properties":{"id":"1181","len":96}},{"type":"Feature","geometry":{"type":"LineString","coordinates":[[-2.87607,53.20346],[-2.87603,53.20346],[-2.87597,53.20337]]},"properties":{"id":"1199","len":13.5}},{"type":"Feature","geometry":{"type":"LineString","coordinates":[[-2.87386,53.19381],[-2.87391,53.1938],[-2.87391,53.19361]]},"properties":{"id":"1201","len":25}},{"type":"Feature","geometry":{"type":"LineString","coordinates":[[-2.89254,53.35684],[-2.89251,53.35704],[-2.89247,53.35727]]},"properties":{"id":"1237","len":47.7}},{"type":"Feature","geometry":{"type":"LineString","coordinates":[[-2.50295,53.73533],[-2.50296,53.73532],[-2.5029,53.73498],[-2.50288,53.73497]]},"properties":{"id":"1278","len":41}},{"type":"Feature","geometry":{"type":"LineString","coordinates":[[-2.78092,53.55117],[-2.78083,53.55115]]},"properties":{"id":"1285","len":6.4}},{"type":"Feature","geometry":{"type":"LineString","coordinates":[[-2.62808,53.54213],[-2.62808,53.54216],[-2.62808,53.54217],[-2.62796,53.54217],[-2.62792,53.54229],[-2.62791,53.5423],[-2.62771,53.54228],[-2.62758,53.54227]]},"properties":{"id":"1299","len":48.1}},{"type":"Feature","geometry":{"type":"LineString","coordinates":[[-2.51637,53.53968],[-2.51635,53.53932]]},"properties":{"id":"1356","len":40.5}},{"type":"Feature","geometry":{"type":"LineString","coordinates":[[-2.62772,53.6671],[-2.62769,53.66709]]},"properties":{"id":"1360","len":2.3}},{"type":"Feature","geometry":{"type":"LineString","coordinates":[[-2.57527,53.59588],[-2.57526,53.59589],[-2.57525,53.59592],[-2.57525,53.59593]]},"properties":{"id":"1366","len":5.9}},{"type":"Feature","geometry":{"type":"LineString","coordinates":[[-2.52878,53.73616],[-2.52877,53.73616],[-2.52863,53.73601],[-2.52851,53.73588]]},"properties":{"id":"1399","len":36}},{"type":"Feature","geometry":{"type":"LineString","coordinates":[[-2.5708,53.40372],[-2.57087,53.40371]]},"properties":{"id":"1415","len":4.9}},{"type":"Feature","geometry":{"type":"LineString","coordinates":[[-2.85042,53.5754],[-2.85043,53.57537]]},"properties":{"id":"1428","len":3.3}},{"type":"Feature","geometry":{"type":"LineString","coordinates":[[-2.49673,53.49362],[-2.49683,53.49352]]},"properties":{"id":"1448","len":13}},{"type":"Feature","geometry":{"type":"LineString","coordinates":[[-2.54073,53.3821],[-2.54022,53.38214],[-2.53998,53.38217],[-2.53914,53.38223]]},"properties":{"id":"1450","len":106.8}},{"type":"Feature","geometry":{"type":"LineString","coordinates":[[-2.50425,53.73747],[-2.50419,53.7376]]},"properties":{"id":"1509","len":14.5}},{"type":"Feature","geometry":{"type":"LineString","coordinates":[[-2.61206,53.64642],[-2.61178,53.64635]]},"properties":{"id":"1510","len":20}},{"type":"Feature","geometry":{"type":"LineString","coordinates":[[-2.71611,53.40782],[-2.716,53.40783],[-2.71599,53.40783],[-2.71563,53.40784]]},"properties":{"id":"1517","len":32}},{"type":"Feature","geometry":{"type":"LineString","coordinates":[[-2.8894,53.56392],[-2.88936,53.56393]]},"properties":{"id":"1528","len":2.7}},{"type":"Feature","geometry":{"type":"LineString","coordinates":[[-2.51741,53.19313],[-2.517,53.19316]]},"properties":{"id":"1529","len":27.4}},{"type":"Feature","geometry":{"type":"LineString","coordinates":[[-2.8477,53.41816],[-2.84765,53.41819]]},"properties":{"id":"1533","len":5.3}},{"type":"Feature","geometry":{"type":"LineString","coordinates":[[-2.56601,53.59183],[-2.56645,53.5916]]},"properties":{"id":"1537","len":38.4}},{"type":"Feature","geometry":{"type":"LineString","coordinates":[[-2.72139,53.46168],[-2.72139,53.46168],[-2.72135,53.46161],[-2.72135,53.46161]]},"properties":{"id":"1543","len":8.2}},{"type":"Feature","geometry":{"type":"LineString","coordinates":[[-2.88579,53.2783],[-2.88589,53.27831],[-2.88631,53.27857],[-2.88635,53.2786],[-2.88653,53.27856],[-2.88653,53.27852]]},"properties":{"id":"123","len":67.9}},{"type":"Feature","geometry":{"type":"LineString","coordinates":[[-2.5427,53.5311],[-2.5427,53.53106],[-2.54269,53.53105]]},"properties":{"id":"125","len":5.4}},{"type":"Feature","geometry":{"type":"LineString","coordinates":[[-2.56663,53.37646],[-2.56675,53.37666],[-2.56678,53.37665],[-2.56698,53.37697],[-2.56695,53.37698],[-2.56707,53.37717]]},"properties":{"id":"127","len":88.4}},{"type":"Feature","geometry":{"type":"LineString","coordinates":[[-2.95852,53.6429],[-2.9585,53.6429],[-2.95797,53.64299]]},"properties":{"id":"142","len":37.9}},{"type":"Feature","geometry":{"type":"LineString","coordinates":[[-2.54904,53.3732],[-2.54909,53.37327],[-2.54899,53.37334]]},"properties":{"id":"151","len":18.1}},{"type":"Feature","geometry":{"type":"LineString","coordinates":[[-2.72117,53.73264],[-2.72116,53.73267]]},"properties":{"id":"153","len":3.8}},{"type":"Feature","geometry":{"type":"LineString","coordinates":[[-2.99544,53.44916],[-2.99553,53.44932]]},"properties":{"id":"174","len":18.8}},{"type":"Feature","geometry":{"type":"LineString","coordinates":[[-2.99088,53.45067],[-2.99075,53.45051]]},"properties":{"id":"234","len":19.7}},{"type":"Feature","geometry":{"type":"LineString","coordinates":[[-2.98706,53.45785],[-2.98666,53.45793],[-2.98662,53.45794]]},"properties":{"id":"243","len":30.1}},{"type":"Feature","geometry":{"type":"LineString","coordinates":[[-2.59916,53.40574],[-2.5992,53.40587]]},"properties":{"id":"323","len":14.3}},{"type":"Feature","geometry":{"type":"LineString","coordinates":[[-2.88627,53.27855],[-2.88635,53.27861],[-2.88653,53.27858],[-2.88658,53.27855]]},"properties":{"id":"362","len":24.8}},{"type":"Feature","geometry":{"type":"LineString","coordinates":[[-2.90496,53.20306],[-2.90465,53.20301]]},"properties":{"id":"364","len":22}},{"type":"Feature","geometry":{"type":"LineString","coordinates":[[-2.70581,53.36149],[-2.70572,53.36151]]},"properties":{"id":"381","len":6.3}},{"type":"Feature","geometry":{"type":"LineString","coordinates":[[-2.75223,53.35678],[-2.75217,53.35678]]},"properties":{"id":"382","len":4}},{"type":"Feature","geometry":{"type":"LineString","coordinates":[[-2.59904,53.40377],[-2.5957,53.40357],[-2.5957,53.40346],[-2.5958,53.40346]]},"properties":{"id":"386","len":243.3}},{"type":"Feature","geometry":{"type":"LineString","coordinates":[[-2.59893,53.40451],[-2.59893,53.40454],[-2.59883,53.40505],[-2.59878,53.40531],[-2.59873,53.40566],[-2.59882,53.40571],[-2.59908,53.40567],[-2.59918,53.40599],[-2.59889,53.40602],[-2.59878,53.40682],[-2.59901,53.40742],[-2.59901,53.40754]]},"properties":{"id":"391","len":382.6}},{"type":"Feature","geometry":{"type":"LineString","coordinates":[[-2.59581,53.40348],[-2.59572,53.40348]]},"properties":{"id":"392","len":6.1}},{"type":"Feature","geometry":{"type":"LineString","coordinates":[[-2.59572,53.40348],[-2.59571,53.40355],[-2.59902,53.40375],[-2.59902,53.40378]]},"properties":{"id":"393","len":232.4}},{"type":"Feature","geometry":{"type":"LineString","coordinates":[[-2.95823,53.46],[-2.95815,53.45999],[-2.95763,53.45988]]},"properties":{"id":"405","len":42.1}},{"type":"Feature","geometry":{"type":"LineString","coordinates":[[-2.45428,53.4547],[-2.45425,53.45472]]},"properties":{"id":"408","len":3.6}},{"type":"Feature","geometry":{"type":"LineString","coordinates":[[-2.45643,53.49249],[-2.45649,53.49264]]},"properties":{"id":"410","len":17.5}},{"type":"Feature","geometry":{"type":"LineString","coordinates":[[-2.71382,53.74823],[-2.71385,53.74825],[-2.71358,53.74848],[-2.71333,53.74873],[-2.71312,53.74897],[-2.71312,53.74903]]},"properties":{"id":"412","len":102.7}},{"type":"Feature","geometry":{"type":"LineString","coordinates":[[-2.61943,53.35815],[-2.61943,53.35823],[-2.61944,53.3583]]},"properties":{"id":"423","len":16}},{"type":"Feature","geometry":{"type":"LineString","coordinates":[[-2.98782,53.45961],[-2.9875,53.45967],[-2.98749,53.45966]]},"properties":{"id":"427","len":23.1}},{"type":"Feature","geometry":{"type":"LineString","coordinates":[[-2.554,53.38019],[-2.55353,53.38015],[-2.55353,53.38015],[-2.55352,53.38016],[-2.55351,53.38016],[-2.55351,53.38015],[-2.5535,53.38015],[-2.5535,53.38015],[-2.55217,53.38003],[-2.55117,53.37995],[-2.55107,53.37995]]},"properties":{"id":"448","len":197.2}},{"type":"Feature","geometry":{"type":"LineString","coordinates":[[-2.88977,53.28377],[-2.88981,53.28389],[-2.88977,53.28391]]},"properties":{"id":"7","len":17.3}},{"type":"Feature","geometry":{"type":"LineString","coordinates":[[-2.51791,53.73244],[-2.5179,53.73243],[-2.51789,53.73243],[-2.51789,53.73242],[-2.51788,53.73241],[-2.51787,53.7324],[-2.51786,53.73238],[-2.51785,53.73236],[-2.51784,53.73235],[-2.51784,53.73233]]},"properties":{"id":"9","len":12.7}},{"type":"Feature","geometry":{"type":"LineString","coordinates":[[-2.88687,53.27883],[-2.88685,53.27884],[-2.88631,53.27863],[-2.8863,53.27862],[-2.88577,53.27831],[-2.88552,53.27842],[-2.88501,53.27865]]},"properties":{"id":"14","len":158}},{"type":"Feature","geometry":{"type":"LineString","coordinates":[[-2.7814,53.49274],[-2.7814,53.49268]]},"properties":{"id":"47","len":5.9}},{"type":"Feature","geometry":{"type":"LineString","coordinates":[[-2.49907,53.4917],[-2.49907,53.49168],[-2.49907,53.49165]]},"properties":{"id":"63","len":4.9}},{"type":"Feature","geometry":{"type":"LineString","coordinates":[[-3.06915,53.37056],[-3.06924,53.37056]]},"properties":{"id":"113","len":6.2}},{"type":"Feature","geometry":{"type":"LineString","coordinates":[[-2.63496,53.45113],[-2.63487,53.45112],[-2.6347,53.45107]]},"properties":{"id":"125","len":18.7}},{"type":"Feature","geometry":{"type":"LineString","coordinates":[[-2.87201,53.40048],[-2.87198,53.40048]]},"properties":{"id":"158","len":2.3}},{"type":"Feature","geometry":{"type":"LineString","coordinates":[[-2.64535,53.39312],[-2.64524,53.39313]]},"properties":{"id":"162","len":7.7}},{"type":"Feature","geometry":{"type":"LineString","coordinates":[[-2.59562,53.40347],[-2.59559,53.40348],[-2.59559,53.40347],[-2.59559,53.40344]]},"properties":{"id":"177","len":6.2}},{"type":"Feature","geometry":{"type":"LineString","coordinates":[[-3.00975,53.64514],[-3.00987,53.64508],[-3.00999,53.64501],[-3.00998,53.645]]},"properties":{"id":"206","len":22.7}},{"type":"Feature","geometry":{"type":"LineString","coordinates":[[-2.96507,53.64212],[-2.96519,53.64233],[-2.96522,53.64251],[-2.96533,53.64271],[-2.96546,53.64269],[-2.96552,53.64279]]},"properties":{"id":"207","len":89.3}},{"type":"Feature","geometry":{"type":"LineString","coordinates":[[-2.8885,53.28152],[-2.88853,53.28151],[-2.8887,53.2817],[-2.88877,53.2818],[-2.88888,53.28198],[-2.88898,53.28213],[-2.88899,53.28216],[-2.88901,53.28221],[-2.8891,53.28243],[-2.88919,53.28264],[-2.8893,53.28293],[-2.88934,53.28301],[-2.88949,53.28338],[-2.88952,53.28346],[-2.88964,53.28362],[-2.88975,53.28375],[-2.88977,53.28377]]},"properties":{"id":"209","len":267.5}},{"type":"Feature","geometry":{"type":"LineString","coordinates":[[-2.47629,53.72113],[-2.47607,53.72115]]},"properties":{"id":"221","len":14.9}},{"type":"Feature","geometry":{"type":"LineString","coordinates":[[-3.12301,53.38844],[-3.12307,53.38845]]},"properties":{"id":"254","len":4.3}},{"type":"Feature","geometry":{"type":"LineString","coordinates":[[-2.71284,53.44124],[-2.71303,53.44108]]},"properties":{"id":"300","len":21.8}},{"type":"Feature","geometry":{"type":"LineString","coordinates":[[-2.77268,53.5869],[-2.77296,53.5869]]},"properties":{"id":"325","len":18.6}},{"type":"Feature","geometry":{"type":"LineString","coordinates":[[-2.45726,53.38286],[-2.45724,53.38286],[-2.45721,53.38287],[-2.45719,53.38301]]},"properties":{"id":"378","len":18.6}},{"type":"Feature","geometry":{"type":"LineString","coordinates":[[-2.59754,53.4026],[-2.597,53.40263],[-2.59703,53.403],[-2.59654,53.403]]},"properties":{"id":"408","len":110.1}},{"type":"Feature","geometry":{"type":"LineString","coordinates":[[-2.71432,53.34092],[-2.71416,53.34071],[-2.71412,53.34067],[-2.71413,53.34066],[-2.71422,53.34064]]},"properties":{"id":"426","len":37.8}},{"type":"Feature","geometry":{"type":"LineString","coordinates":[[-2.5977,53.37337],[-2.5977,53.37336],[-2.59768,53.37332],[-2.59762,53.37324],[-2.59754,53.37309],[-2.59742,53.37288],[-2.59731,53.3727],[-2.59728,53.37265]]},"properties":{"id":"452","len":85}},{"type":"Feature","geometry":{"type":"LineString","coordinates":[[-2.61794,53.39652],[-2.61767,53.39655]]},"properties":{"id":"453","len":18.3}},{"type":"Feature","geometry":{"type":"LineString","coordinates":[[-2.9754,53.34377],[-2.97538,53.34373]]},"properties":{"id":"455","len":4.4}},{"type":"Feature","geometry":{"type":"LineString","coordinates":[[-2.98378,53.64609],[-2.98362,53.64605]]},"properties":{"id":"534","len":11.3}},{"type":"Feature","geometry":{"type":"LineString","coordinates":[[-2.45878,53.22424],[-2.45877,53.22423],[-2.45872,53.22416],[-2.45872,53.22415]]},"properties":{"id":"544","len":10.8}},{"type":"Feature","geometry":{"type":"LineString","coordinates":[[-2.88449,53.27894],[-2.88448,53.27894],[-2.88448,53.27893],[-2.88447,53.27893],[-2.88447,53.27893],[-2.88447,53.27893],[-2.88447,53.27893],[-2.88447,53.27893],[-2.88446,53.27892],[-2.88446,53.27892],[-2.88446,53.27892],[-2.88446,53.27892],[-2.88446,53.27892],[-2.88446,53.27892],[-2.88433,53.27883],[-2.8842,53.27874],[-2.8841,53.27865],[-2.88387,53.27845],[-2.88369,53.27827],[-2.88354,53.27812],[-2.88354,53.27812],[-2.88318,53.27772],[-2.88316,53.2777],[-2.88305,53.27757],[-2.88273,53.2772],[-2.883,53.27713],[-2.88304,53.27708]]},"properties":{"id":"548","len":253.1}},{"type":"Feature","geometry":{"type":"LineString","coordinates":[[-2.88501,53.27865],[-2.88499,53.27866],[-2.88447,53.27893],[-2.88443,53.27895]]},"properties":{"id":"550","len":51.8}},{"type":"Feature","geometry":{"type":"LineString","coordinates":[[-2.77954,53.67065],[-2.77959,53.67069],[-2.77966,53.67078]]},"properties":{"id":"578","len":16.4}},{"type":"Feature","geometry":{"type":"LineString","coordinates":[[-2.63753,53.54058],[-2.63749,53.54057],[-2.63748,53.54056],[-2.63745,53.54055]]},"properties":{"id":"591","len":6.5}},{"type":"Feature","geometry":{"type":"LineString","coordinates":[[-2.77733,53.41583],[-2.77733,53.4158],[-2.77729,53.4158],[-2.77723,53.41558],[-2.77723,53.41558]]},"properties":{"id":"598","len":31.2}},{"type":"Feature","geometry":{"type":"LineString","coordinates":[[-3.04332,53.56295],[-3.04329,53.56295]]},"properties":{"id":"672","len":2.5}},{"type":"Feature","geometry":{"type":"LineString","coordinates":[[-2.9462,53.66919],[-2.94594,53.66914]]},"properties":{"id":"673","len":17.5}},{"type":"Feature","geometry":{"type":"LineString","coordinates":[[-2.90586,53.35751],[-2.90553,53.35735],[-2.90559,53.35731],[-2.90537,53.3572]]},"properties":{"id":"674","len":53.5}},{"type":"Feature","geometry":{"type":"LineString","coordinates":[[-3.06914,53.37057],[-3.06924,53.37058]]},"properties":{"id":"675","len":6.5}},{"type":"Feature","geometry":{"type":"LineString","coordinates":[[-2.47751,53.38196],[-2.47751,53.38194],[-2.47751,53.3819],[-2.4775,53.38187],[-2.4775,53.38182],[-2.4775,53.38178]]},"properties":{"id":"744","len":20.5}},{"type":"Feature","geometry":{"type":"LineString","coordinates":[[-2.47021,53.08473],[-2.47021,53.08474],[-2.47022,53.0848]]},"properties":{"id":"893","len":7.1}},{"type":"Feature","geometry":{"type":"LineString","coordinates":[[-2.45552,53.09526],[-2.45546,53.09531]]},"properties":{"id":"894","len":6.7}},{"type":"Feature","geometry":{"type":"LineString","coordinates":[[-2.7714,53.46295],[-2.7714,53.46298]]},"properties":{"id":"900","len":3.6}},{"type":"Feature","geometry":{"type":"LineString","coordinates":[[-2.59726,53.51683],[-2.59727,53.51688]]},"properties":{"id":"913","len":4.7}},{"type":"Feature","geometry":{"type":"LineString","coordinates":[[-2.72126,53.32612],[-2.72104,53.32625]]},"properties":{"id":"915","len":20}},{"type":"Feature","geometry":{"type":"LineString","coordinates":[[-2.57221,53.38181],[-2.5721,53.38179]]},"properties":{"id":"916","len":7.6}},{"type":"Feature","geometry":{"type":"LineString","coordinates":[[-2.72124,53.38808],[-2.72122,53.38807],[-2.72118,53.38805]]},"properties":{"id":"917","len":5.5}},{"type":"Feature","geometry":{"type":"LineString","coordinates":[[-2.60721,53.61184],[-2.60709,53.61183]]},"properties":{"id":"919","len":8.5}},{"type":"Feature","geometry":{"type":"LineString","coordinates":[[-2.8444,53.18535],[-2.84431,53.18539]]},"properties":{"id":"928","len":7}},{"type":"Feature","geometry":{"type":"LineString","coordinates":[[-2.73101,53.73364],[-2.73101,53.73365],[-2.73101,53.73367]]},"properties":{"id":"999","len":3.4}},{"type":"Feature","geometry":{"type":"LineString","coordinates":[[-2.46228,53.43657],[-2.46217,53.43666]]},"properties":{"id":"1024","len":12.8}},{"type":"Feature","geometry":{"type":"LineString","coordinates":[[-2.76556,53.45741],[-2.76549,53.45738],[-2.76549,53.45738]]},"properties":{"id":"1129","len":6.1}},{"type":"Feature","geometry":{"type":"LineString","coordinates":[[-2.94498,53.51272],[-2.9449,53.51274],[-2.94479,53.51278]]},"properties":{"id":"1137","len":14.3}},{"type":"Feature","geometry":{"type":"LineString","coordinates":[[-2.66476,53.55749],[-2.66491,53.55741]]},"properties":{"id":"1145","len":13.2}},{"type":"Feature","geometry":{"type":"LineString","coordinates":[[-2.62054,53.67863],[-2.62027,53.67864],[-2.62023,53.67864]]},"properties":{"id":"1152","len":20.3}},{"type":"Feature","geometry":{"type":"LineString","coordinates":[[-2.71197,53.4283],[-2.71188,53.42832]]},"properties":{"id":"1156","len":6.7}},{"type":"Feature","geometry":{"type":"LineString","coordinates":[[-2.65451,53.43102],[-2.6545,53.43109]]},"properties":{"id":"1168","len":7.7}},{"type":"Feature","geometry":{"type":"LineString","coordinates":[[-2.9218,53.36262],[-2.92176,53.36265],[-2.92152,53.36281],[-2.9215,53.36282],[-2.92148,53.36281],[-2.92142,53.36278],[-2.9214,53.3628]]},"properties":{"id":"1183","len":39.4}},{"type":"Feature","geometry":{"type":"LineString","coordinates":[[-2.86195,53.19258],[-2.86193,53.1926],[-2.86172,53.19267],[-2.8617,53.19269],[-2.86168,53.1927],[-2.86168,53.19271]]},"properties":{"id":"1200","len":23.7}},{"type":"Feature","geometry":{"type":"LineString","coordinates":[[-2.84957,53.57471],[-2.84949,53.5747]]},"properties":{"id":"1277","len":5.6}},{"type":"Feature","geometry":{"type":"LineString","coordinates":[[-2.87543,53.46322],[-2.87547,53.46325]]},"properties":{"id":"1287","len":3.8}},{"type":"Feature","geometry":{"type":"LineString","coordinates":[[-2.59683,53.46862],[-2.59691,53.46863],[-2.59772,53.46873]]},"properties":{"id":"1343","len":59.9}},{"type":"Feature","geometry":{"type":"LineString","coordinates":[[-2.45964,53.07176],[-2.45952,53.07165],[-2.45947,53.07159],[-2.45945,53.07154]]},"properties":{"id":"1374","len":28.4}},{"type":"Feature","geometry":{"type":"LineString","coordinates":[[-2.59466,53.4033],[-2.5952,53.4033]]},"properties":{"id":"1402","len":36.1}},{"type":"Feature","geometry":{"type":"LineString","coordinates":[[-2.5663,53.39624],[-2.56633,53.39628]]},"properties":{"id":"1405","len":5.1}},{"type":"Feature","geometry":{"type":"LineString","coordinates":[[-2.96722,53.40514],[-2.96734,53.40517],[-2.96736,53.40517]]},"properties":{"id":"1427","len":10}},{"type":"Feature","geometry":{"type":"LineString","coordinates":[[-2.88909,53.28418],[-2.88865,53.28436],[-2.88854,53.2844]]},"properties":{"id":"1434","len":43.5}},{"type":"Feature","geometry":{"type":"LineString","coordinates":[[-2.74388,53.50219],[-2.74386,53.50219],[-2.74382,53.50227]]},"properties":{"id":"1500","len":10.8}},{"type":"Feature","geometry":{"type":"LineString","coordinates":[[-2.96771,53.63113],[-2.96768,53.63111],[-2.96766,53.63109]]},"properties":{"id":"1504","len":5.6}},{"type":"Feature","geometry":{"type":"LineString","coordinates":[[-2.73585,53.47138],[-2.7353,53.47142]]},"properties":{"id":"1541","len":37}},{"type":"Feature","geometry":{"type":"LineString","coordinates":[[-2.47662,53.24267],[-2.47663,53.24267],[-2.47665,53.24267],[-2.47689,53.24268]]},"properties":{"id":"58","len":18.2}},{"type":"Feature","geometry":{"type":"LineString","coordinates":[[-2.90962,53.21224],[-2.90962,53.21224],[-2.90991,53.21239],[-2.90991,53.2124]]},"properties":{"id":"59","len":26.2}},{"type":"Feature","geometry":{"type":"LineString","coordinates":[[-2.56948,53.37],[-2.56943,53.37001]]},"properties":{"id":"152","len":3.7}},{"type":"Feature","geometry":{"type":"LineString","coordinates":[[-2.89302,53.35725],[-2.89305,53.35724],[-2.89335,53.35708]]},"properties":{"id":"251","len":28.8}},{"type":"Feature","geometry":{"type":"LineString","coordinates":[[-2.97342,53.38494],[-2.97352,53.38491],[-2.97351,53.38489],[-2.97349,53.38486]]},"properties":{"id":"271","len":13.8}},{"type":"Feature","geometry":{"type":"LineString","coordinates":[[-2.75892,53.47857],[-2.7589,53.4786]]},"properties":{"id":"272","len":3.3}},{"type":"Feature","geometry":{"type":"LineString","coordinates":[[-2.95421,53.50375],[-2.95421,53.50377],[-2.95429,53.50386],[-2.95432,53.50386]]},"properties":{"id":"355","len":15.2}},{"type":"Feature","geometry":{"type":"LineString","coordinates":[[-3.01832,53.57035],[-3.01847,53.57046]]},"properties":{"id":"356","len":16.4}},{"type":"Feature","geometry":{"type":"LineString","coordinates":[[-2.94455,53.49359],[-2.94448,53.49366]]},"properties":{"id":"358","len":8.6}},{"type":"Feature","geometry":{"type":"LineString","coordinates":[[-2.65171,53.32405],[-2.65172,53.32405],[-2.65168,53.32415],[-2.65168,53.32416]]},"properties":{"id":"372","len":12.6}},{"type":"Feature","geometry":{"type":"LineString","coordinates":[[-2.69356,53.36428],[-2.69351,53.36429]]},"properties":{"id":"383","len":3.2}},{"type":"Feature","geometry":{"type":"LineString","coordinates":[[-2.6282,53.38298],[-2.62807,53.38293]]},"properties":{"id":"384","len":10}},{"type":"Feature","geometry":{"type":"LineString","coordinates":[[-2.69293,53.73357],[-2.69302,53.73366],[-2.69321,53.73369],[-2.69335,53.73365],[-2.69337,53.73365]]},"properties":{"id":"394","len":35.2}},{"type":"Feature","geometry":{"type":"LineString","coordinates":[[-2.45913,53.45036],[-2.45916,53.45041]]},"properties":{"id":"407","len":5.4}},{"type":"Feature","geometry":{"type":"LineString","coordinates":[[-2.45644,53.48353],[-2.45647,53.48378]]},"properties":{"id":"409","len":28}},{"type":"Feature","geometry":{"type":"LineString","coordinates":[[-2.6306,53.53929],[-2.63048,53.53948]]},"properties":{"id":"411","len":23.1}},{"type":"Feature","geometry":{"type":"LineString","coordinates":[[-2.63875,53.3467],[-2.63845,53.34667]]},"properties":{"id":"425","len":20.4}},{"type":"Feature","geometry":{"type":"LineString","coordinates":[[-2.71654,53.68486],[-2.71656,53.68482]]},"properties":{"id":"20","len":5}},{"type":"Feature","geometry":{"type":"LineString","coordinates":[[-2.47111,53.08418],[-2.4711,53.08419],[-2.47101,53.08424],[-2.47097,53.08427]]},"properties":{"id":"43","len":14.1}},{"type":"Feature","geometry":{"type":"LineString","coordinates":[[-2.73163,53.45104],[-2.7314,53.45119],[-2.73098,53.45119],[-2.73049,53.45118]]},"properties":{"id":"51","len":83.3}},{"type":"Feature","geometry":{"type":"LineString","coordinates":[[-2.46938,53.38238],[-2.4694,53.38252],[-2.46941,53.38258]]},"properties":{"id":"72","len":22.2}},{"type":"Feature","geometry":{"type":"LineString","coordinates":[[-2.47031,53.08471],[-2.4703,53.08474],[-2.47025,53.08481]]},"properties":{"id":"93","len":12.2}},{"type":"Feature","geometry":{"type":"LineString","coordinates":[[-2.53063,53.23772],[-2.53046,53.23764],[-2.53024,53.23754],[-2.5301,53.23746]]},"properties":{"id":"128","len":45.4}},{"type":"Feature","geometry":{"type":"LineString","coordinates":[[-3.01857,53.38727],[-3.01859,53.38727],[-3.01922,53.38728],[-3.01922,53.38715]]},"properties":{"id":"136","len":58.4}},{"type":"Feature","geometry":{"type":"LineString","coordinates":[[-2.89135,53.2864],[-2.89116,53.28645]]},"properties":{"id":"152","len":14.3}},{"type":"Feature","geometry":{"type":"LineString","coordinates":[[-3.01924,53.38722],[-3.01924,53.3873],[-3.01873,53.38729],[-3.01871,53.38729],[-3.01871,53.38729],[-3.0187,53.38729],[-3.01869,53.38729],[-3.01869,53.38729],[-3.01868,53.38728],[-3.01867,53.38729],[-3.01867,53.38729],[-3.01866,53.38729],[-3.01866,53.38728],[-3.01859,53.38728],[-3.01858,53.38728]]},"properties":{"id":"219","len":53.8}},{"type":"Feature","geometry":{"type":"LineString","coordinates":[[-2.77896,53.49054],[-2.7789,53.49057],[-2.77889,53.49058]]},"properties":{"id":"220","len":6.1}},{"type":"Feature","geometry":{"type":"LineString","coordinates":[[-2.89421,53.35269],[-2.8942,53.35248]]},"properties":{"id":"232","len":23.8}},{"type":"Feature","geometry":{"type":"LineString","coordinates":[[-2.90361,53.29044],[-2.90336,53.29031]]},"properties":{"id":"233","len":22}},{"type":"Feature","geometry":{"type":"LineString","coordinates":[[-2.59495,53.40277],[-2.59495,53.40281],[-2.59495,53.40304],[-2.59495,53.40325],[-2.59498,53.40325],[-2.59499,53.40327]]},"properties":{"id":"260","len":58.1}},{"type":"Feature","geometry":{"type":"LineString","coordinates":[[-2.48986,53.46021],[-2.48959,53.46028]]},"properties":{"id":"268","len":19.8}},{"type":"Feature","geometry":{"type":"LineString","coordinates":[[-2.54555,53.24982],[-2.54525,53.24967]]},"properties":{"id":"281","len":26.2}},{"type":"Feature","geometry":{"type":"LineString","coordinates":[[-2.95554,53.62094],[-2.95549,53.62092]]},"properties":{"id":"311","len":4.3}},{"type":"Feature","geometry":{"type":"LineString","coordinates":[[-2.76574,53.58832],[-2.76577,53.5883],[-2.76597,53.58819]]},"properties":{"id":"333","len":20}},{"type":"Feature","geometry":{"type":"LineString","coordinates":[[-2.59557,53.4035],[-2.59557,53.40346],[-2.59554,53.40346]]},"properties":{"id":"371","len":6}},{"type":"Feature","geometry":{"type":"LineString","coordinates":[[-2.89262,53.57344],[-2.89258,53.57342]]},"properties":{"id":"397","len":3.3}},{"type":"Feature","geometry":{"type":"LineString","coordinates":[[-2.59814,53.4026],[-2.59754,53.4026]]},"properties":{"id":"407","len":40}},{"type":"Feature","geometry":{"type":"LineString","coordinates":[[-2.88509,53.2786],[-2.88443,53.27894],[-2.88441,53.27892],[-2.8844,53.27892],[-2.8844,53.27891]]},"properties":{"id":"412","len":61.5}},{"type":"Feature","geometry":{"type":"LineString","coordinates":[[-2.5955,53.40301],[-2.59549,53.40326],[-2.59546,53.40327],[-2.59499,53.40327],[-2.59467,53.40327]]},"properties":{"id":"445","len":83}},{"type":"Feature","geometry":{"type":"LineString","coordinates":[[-2.6172,53.39668],[-2.61689,53.39673],[-2.61688,53.39673]]},"properties":{"id":"450","len":22.3}},{"type":"Feature","geometry":{"type":"LineString","coordinates":[[-2.87201,53.26294],[-2.87099,53.26307],[-2.87089,53.26308]]},"properties":{"id":"478","len":76.6}},{"type":"Feature","geometry":{"type":"LineString","coordinates":[[-2.8752,53.28168],[-2.87512,53.28184],[-2.87511,53.28188]]},"properties":{"id":"538","len":22.9}},{"type":"Feature","geometry":{"type":"LineString","coordinates":[[-2.893,53.28675],[-2.89297,53.28674],[-2.89293,53.28676],[-2.89287,53.28676],[-2.89285,53.28676],[-2.8928,53.28676],[-2.89278,53.28676]]},"properties":{"id":"539","len":15.2}},{"type":"Feature","geometry":{"type":"LineString","coordinates":[[-2.88443,53.27895],[-2.88441,53.27896],[-2.88439,53.27897],[-2.88438,53.27896],[-2.88437,53.27895]]},"properties":{"id":"549","len":5}},{"type":"Feature","geometry":{"type":"LineString","coordinates":[[-2.52782,53.57318],[-2.52769,53.5733],[-2.52769,53.57331]]},"properties":{"id":"574","len":16.7}},{"type":"Feature","geometry":{"type":"LineString","coordinates":[[-3.10661,53.37381],[-3.10658,53.37382]]},"properties":{"id":"583","len":2.8}},{"type":"Feature","geometry":{"type":"LineString","coordinates":[[-2.74423,53.47069],[-2.74411,53.4707]]},"properties":{"id":"599","len":8}},{"type":"Feature","geometry":{"type":"LineString","coordinates":[[-2.57211,53.38194],[-2.57203,53.38191],[-2.57199,53.38191]]},"properties":{"id":"670","len":8.4}},{"type":"Feature","geometry":{"type":"LineString","coordinates":[[-3.07195,53.56588],[-3.0717,53.5659]]},"properties":{"id":"671","len":17}},{"type":"Feature","geometry":{"type":"LineString","coordinates":[[-2.69229,53.69701],[-2.69223,53.69701]]},"properties":{"id":"698","len":3.9}},{"type":"Feature","geometry":{"type":"LineString","coordinates":[[-2.51199,53.25977],[-2.51199,53.2599],[-2.51199,53.26003],[-2.51199,53.26005]]},"properties":{"id":"737","len":30.9}},{"type":"Feature","geometry":{"type":"LineString","coordinates":[[-2.7101,53.45763],[-2.70995,53.45767]]},"properties":{"id":"899","len":10.9}},{"type":"Feature","geometry":{"type":"LineString","coordinates":[[-2.88134,53.26741],[-2.88132,53.26739]]},"properties":{"id":"908","len":3.4}},{"type":"Feature","geometry":{"type":"LineString","coordinates":[[-2.88632,53.27857],[-2.88653,53.27871],[-2.88654,53.27872],[-2.88654,53.27873],[-2.88656,53.27874],[-2.88658,53.27874],[-2.88665,53.27879],[-2.88682,53.27885],[-2.88727,53.27922]]},"properties":{"id":"910","len":97.7}},{"type":"Feature","geometry":{"type":"LineString","coordinates":[[-2.62053,53.67863],[-2.62024,53.67864]]},"properties":{"id":"918","len":19.2}},{"type":"Feature","geometry":{"type":"LineString","coordinates":[[-2.7038,53.73665],[-2.7035,53.73652]]},"properties":{"id":"920","len":24.4}},{"type":"Feature","geometry":{"type":"LineString","coordinates":[[-2.66545,53.38226],[-2.66544,53.38229]]},"properties":{"id":"922","len":3.6}},{"type":"Feature","geometry":{"type":"LineString","coordinates":[[-2.47851,53.53302],[-2.47847,53.53302]]},"properties":{"id":"982","len":3.3}},{"type":"Feature","geometry":{"type":"LineString","coordinates":[[-3.07791,53.37978],[-3.07783,53.37983]]},"properties":{"id":"1019","len":7.9}},{"type":"Feature","geometry":{"type":"LineString","coordinates":[[-2.66447,53.55802],[-2.66442,53.55808],[-2.66443,53.55811]]},"properties":{"id":"1064","len":10.6}},{"type":"Feature","geometry":{"type":"LineString","coordinates":[[-2.63056,53.53842],[-2.63057,53.53842],[-2.63046,53.53836]]},"properties":{"id":"1133","len":10.7}},{"type":"Feature","geometry":{"type":"LineString","coordinates":[[-2.60311,53.6087],[-2.60305,53.60867],[-2.60289,53.60857],[-2.60287,53.60857],[-2.60286,53.60857]]},"properties":{"id":"1138","len":22.7}},{"type":"Feature","geometry":{"type":"LineString","coordinates":[[-2.66618,53.6641],[-2.66618,53.66407]]},"properties":{"id":"1140","len":3.4}},{"type":"Feature","geometry":{"type":"LineString","coordinates":[[-2.56945,53.36993],[-2.56938,53.36995]]},"properties":{"id":"1150","len":4.9}},{"type":"Feature","geometry":{"type":"LineString","coordinates":[[-2.56892,53.59043],[-2.56871,53.5906],[-2.56866,53.59061]]},"properties":{"id":"1160","len":27.3}},{"type":"Feature","geometry":{"type":"LineString","coordinates":[[-2.88039,53.28185],[-2.88039,53.28192]]},"properties":{"id":"1166","len":6.9}},{"type":"Feature","geometry":{"type":"LineString","coordinates":[[-2.78622,53.26139],[-2.78603,53.26131],[-2.7856,53.26113]]},"properties":{"id":"1167","len":50}},{"type":"Feature","geometry":{"type":"LineString","coordinates":[[-2.71435,53.3409],[-2.71419,53.34069]]},"properties":{"id":"1171","len":25.8}},{"type":"Feature","geometry":{"type":"LineString","coordinates":[[-2.89163,53.46297],[-2.89156,53.46297]]},"properties":{"id":"1288","len":4.5}},{"type":"Feature","geometry":{"type":"LineString","coordinates":[[-2.6264,53.54197],[-2.62641,53.54196],[-2.62666,53.54162],[-2.62693,53.54124]]},"properties":{"id":"1297","len":88.9}},{"type":"Feature","geometry":{"type":"LineString","coordinates":[[-2.62758,53.54227],[-2.62728,53.54223],[-2.62642,53.54198],[-2.62641,53.54198],[-2.6264,53.54197]]},"properties":{"id":"1298","len":85.6}},{"type":"Feature","geometry":{"type":"LineString","coordinates":[[-2.47606,53.25482],[-2.47596,53.25483],[-2.47589,53.25484]]},"properties":{"id":"1326","len":11.1}},{"type":"Feature","geometry":{"type":"LineString","coordinates":[[-2.88078,53.46394],[-2.88047,53.46396]]},"properties":{"id":"1364","len":20.6}},{"type":"Feature","geometry":{"type":"LineString","coordinates":[[-2.61489,53.45279],[-2.6148,53.45284]]},"properties":{"id":"1365","len":8.1}},{"type":"Feature","geometry":{"type":"LineString","coordinates":[[-2.96647,53.40767],[-2.96648,53.40768],[-2.96649,53.40767],[-2.96649,53.40767],[-2.96649,53.40767]]},"properties":{"id":"1409","len":2.4}},{"type":"Feature","geometry":{"type":"LineString","coordinates":[[-2.87197,53.40042],[-2.87194,53.40042]]},"properties":{"id":"1410","len":1.5}},{"type":"Feature","geometry":{"type":"LineString","coordinates":[[-2.63172,53.56843],[-2.63177,53.56835]]},"properties":{"id":"1412","len":9}},{"type":"Feature","geometry":{"type":"LineString","coordinates":[[-2.45732,53.38286],[-2.4573,53.38286],[-2.45722,53.38301]]},"properties":{"id":"1419","len":19.2}},{"type":"Feature","geometry":{"type":"LineString","coordinates":[[-2.8716,53.46249],[-2.8716,53.46254]]},"properties":{"id":"1432","len":5.4}},{"type":"Feature","geometry":{"type":"LineString","coordinates":[[-2.5639,53.39769],[-2.56381,53.3977]]},"properties":{"id":"1501","len":5.9}},{"type":"Feature","geometry":{"type":"LineString","coordinates":[[-2.72134,53.46159],[-2.72138,53.46168]]},"properties":{"id":"1511","len":9.7}},{"type":"Feature","geometry":{"type":"LineString","coordinates":[[-2.60501,53.52448],[-2.60499,53.52448],[-2.60489,53.52444],[-2.60488,53.52442]]},"properties":{"id":"1512","len":11.4}},{"type":"Feature","geometry":{"type":"LineString","coordinates":[[-2.83374,53.56006],[-2.83359,53.56013]]},"properties":{"id":"1526","len":12.7}},{"type":"Feature","geometry":{"type":"LineString","coordinates":[[-2.85271,53.45845],[-2.85271,53.45843]]},"properties":{"id":"1534","len":1.6}},{"type":"Feature","geometry":{"type":"LineString","coordinates":[[-2.66045,53.47252],[-2.66004,53.47251]]},"properties":{"id":"1542","len":27.3}},{"type":"Feature","geometry":{"type":"LineString","coordinates":[[-2.89193,53.58002],[-2.89188,53.58004]]},"properties":{"id":"1545","len":3.8}},{"type":"Feature","geometry":{"type":"LineString","coordinates":[[-2.73652,53.34052],[-2.73704,53.34083],[-2.7374,53.34105],[-2.73769,53.34122],[-2.73816,53.3415],[-2.73832,53.34161],[-2.73847,53.34171],[-2.73867,53.34187],[-2.73884,53.34201],[-2.73903,53.3422],[-2.73915,53.34235],[-2.7392,53.34246],[-2.73925,53.3426],[-2.7393,53.34279],[-2.73932,53.34298],[-2.73932,53.34314],[-2.73927,53.3435],[-2.73923,53.3435],[-2.73916,53.34349],[-2.73914,53.3435],[-2.73906,53.34365],[-2.73893,53.3439],[-2.73861,53.34453],[-2.73842,53.34488],[-2.73833,53.34507],[-2.73814,53.34549],[-2.73839,53.34554],[-2.73842,53.34555],[-2.73841,53.34556],[-2.73838,53.34557],[-2.73812,53.34553],[-2.73794,53.34586],[-2.73781,53.34611],[-2.73768,53.34638],[-2.7375,53.34674],[-2.73745,53.34683],[-2.73727,53.3472],[-2.73703,53.34768],[-2.73707,53.34771],[-2.73695,53.34801],[-2.73702,53.34802],[-2.73698,53.34823],[-2.73694,53.34846],[-2.73691,53.34874],[-2.7369,53.34902],[-2.7369,53.34925],[-2.73688,53.34928],[-2.73689,53.34935],[-2.73688,53.34935]]},"properties":{"id":"32","len":1125.3}},{"type":"Feature","geometry":{"type":"LineString","coordinates":[[-2.95213,53.48485],[-2.95207,53.48495]]},"properties":{"id":"81","len":12.3}},{"type":"Feature","geometry":{"type":"LineString","coordinates":[[-2.95207,53.48495],[-2.95205,53.48497],[-2.95204,53.48497]]},"properties":{"id":"82","len":3.6}},{"type":"Feature","geometry":{"type":"LineString","coordinates":[[-2.88077,53.46393],[-2.88022,53.46397]]},"properties":{"id":"124","len":37.1}},{"type":"Feature","geometry":{"type":"LineString","coordinates":[[-2.49426,53.73498],[-2.49414,53.73505]]},"properties":{"id":"129","len":11.6}},{"type":"Feature","geometry":{"type":"LineString","coordinates":[[-2.89778,53.64455],[-2.89772,53.6446]]},"properties":{"id":"143","len":6}},{"type":"Feature","geometry":{"type":"LineString","coordinates":[[-2.9973,53.44872],[-2.99756,53.44857]]},"properties":{"id":"175","len":23.2}},{"type":"Feature","geometry":{"type":"LineString","coordinates":[[-2.9903,53.42221],[-2.99042,53.42209],[-2.99057,53.42195]]},"properties":{"id":"212","len":34}},{"type":"Feature","geometry":{"type":"LineString","coordinates":[[-2.59581,53.40343],[-2.59566,53.40342]]},"properties":{"id":"321","len":9.5}},{"type":"Feature","geometry":{"type":"LineString","coordinates":[[-2.59566,53.40342],[-2.59566,53.40359],[-2.59709,53.40368],[-2.59808,53.40373],[-2.59904,53.4038]]},"properties":{"id":"322","len":244.3}},{"type":"Feature","geometry":{"type":"LineString","coordinates":[[-2.88585,53.27826],[-2.88595,53.27827],[-2.88636,53.27855],[-2.8865,53.27854]]},"properties":{"id":"363","len":58.1}},{"type":"Feature","geometry":{"type":"LineString","coordinates":[[-2.89967,53.1933],[-2.89976,53.19332]]},"properties":{"id":"365","len":6.7}},{"type":"Feature","geometry":{"type":"LineString","coordinates":[[-2.70528,53.45736],[-2.7054,53.45772],[-2.70542,53.45778]]},"properties":{"id":"371","len":48}},{"type":"Feature","geometry":{"type":"LineString","coordinates":[[-2.59917,53.40588],[-2.59913,53.40574]]},"properties":{"id":"385","len":15.1}},{"type":"Feature","geometry":{"type":"LineString","coordinates":[[-2.61899,53.36557],[-2.61942,53.36583],[-2.61911,53.36602],[-2.61762,53.36687],[-2.61719,53.36712],[-2.61762,53.36739]]},"properties":{"id":"424","len":288.5}},{"type":"Feature","geometry":{"type":"LineString","coordinates":[[-2.98788,53.4596],[-2.98782,53.45961]]},"properties":{"id":"426","len":4.1}},{"type":"Feature","geometry":{"type":"LineString","coordinates":[[-2.96426,53.45988],[-2.9642,53.45988],[-2.96382,53.4599],[-2.96369,53.45993],[-2.96371,53.46002],[-2.96369,53.46003]]},"properties":{"id":"446","len":49.7}}]}