{"type":"FeatureCollection","features":[{"type":"Feature","geometry":{"type":"LineString","coordinates":[[-2.75054,53.61965],[-2.75037,53.61972],[-2.75001,53.61943],[-2.74441,53.61796],[-2.74119,53.6185],[-2.7388,53.61874],[-2.73748,53.61904],[-2.73519,53.61935],[-2.73283,53.61937],[-2.72915,53.62002],[-2.72713,53.62035],[-2.7245,53.61973],[-2.72137,53.61841],[-2.72055,53.61733],[-2.7178,53.61522],[-2.71663,53.61349],[-2.71471,53.61157],[-2.71288,53.61067],[-2.71142,53.6081],[-2.7102,53.60644],[-2.70822,53.60399],[-2.70775,53.60361],[-2.70564,53.60261],[-2.70524,53.60254],[-2.70253,53.60265],[-2.70167,53.603],[-2.699,53.60268],[-2.69332,53.60311],[-2.69238,53.60312],[-2.68999,53.60286],[-2.68874,53.60286],[-2.6859,53.60296],[-2.68148,53.60358],[-2.68001,53.60389],[-2.67953,53.60423],[-2.67941,53.60488],[-2.67406,53.60597],[-2.67279,53.60611],[-2.66672,53.60522],[-2.66536,53.60546],[-2.66132,53.6056],[-2.65552,53.60498],[-2.65492,53.60485],[-2.65319,53.60413],[-2.65008,53.60464],[-2.64596,53.6054],[-2.64186,53.60516],[-2.64013,53.60484],[-2.63679,53.60406],[-2.63293,53.60193],[-2.63002,53.60175],[-2.62402,53.59975],[-2.62182,53.59828],[-2.6193,53.598],[-2.61453,53.59659],[-2.61302,53.59645],[-2.61074,53.59577],[-2.60375,53.59425],[-2.60245,53.593],[-2.60262,53.59236],[-2.60132,53.59075],[-2.59596,53.58801],[-2.58597,53.58509],[-2.58395,53.58336],[-2.58332,53.58055],[-2.58111,53.57834],[-2.57821,53.5751],[-2.57781,53.57474],[-2.57545,53.57278],[-2.57457,53.57199],[-2.57297,53.57081],[-2.57206,53.56988],[-2.56971,53.56792],[-2.56808,53.5659],[-2.56754,53.56573],[-2.56659,53.56491],[-2.56316,53.56372],[-2.55841,53.56214],[-2.55764,53.56154],[-2.55643,53.55893],[-2.55482,53.55533],[-2.55345,53.55197],[-2.55333,53.55149],[-2.55332,53.55086],[-2.55368,53.54898],[-2.55381,53.54864],[-2.55459,53.54752],[-2.55507,53.547],[-2.55503,53.54686],[-2.55285,53.54628],[-2.55225,53.5456],[-2.55321,53.54392],[-2.55286,53.54374],[-2.54817,53.54353],[-2.54488,53.54368],[-2.54197,53.54371],[-2.54188,53.54188],[-2.54193,53.5416],[-2.54254,53.54118],[-2.54264,53.53957],[-2.54285,53.539],[-2.54085,53.53723],[-2.53873,53.53572],[-2.53903,53.53338],[-2.53945,53.53233],[-2.5376,53.53028],[-2.53626,53.52965],[-2.53613,53.52899],[-2.53617,53.52824],[-2.5357,53.528],[-2.5325,53.52587],[-2.5257,53.52593],[-2.52408,53.52569],[-2.52334,53.52522],[-2.52301,53.52511],[-2.52209,53.52497],[-2.51761,53.52476],[-2.51612,53.52465],[-2.51581,53.52414],[-2.51281,53.52343],[-2.50975,53.52369],[-2.50859,53.52313],[-2.51003,53.52117],[-2.51077,53.52043],[-2.51124,53.5196],[-2.50864,53.519],[-2.50754,53.51875],[-2.50548,53.51828],[-2.49346,53.51582],[-2.4933,53.51559],[-2.48987,53.5144],[-2.4882,53.51411],[-2.48399,53.5093],[-2.47805,53.50891],[-2.47721,53.50885],[-2.47533,53.50776],[-2.4757,53.50681],[-2.47543,53.50556],[-2.47529,53.50408],[-2.47559,53.50334],[-2.4763,53.50204],[-2.47563,53.50042],[-2.47375,53.49774],[-2.47442,53.49571],[-2.47448,53.49458],[-2.47541,53.49364],[-2.47443,53.49076],[-2.47496,53.48863],[-2.47763,53.48718],[-2.47854,53.48703],[-2.47978,53.48623],[-2.48129,53.4861],[-2.48374,53.48488],[-2.48394,53.48373],[-2.48425,53.48077],[-2.48474,53.47556],[-2.48355,53.47402],[-2.48358,53.47373],[-2.48462,53.47207],[-2.48552,53.47119],[-2.48576,53.46905],[-2.48576,53.46855],[-2.48566,53.46801],[-2.48548,53.46714],[-2.48492,53.46374],[-2.48439,53.4606],[-2.48434,53.45996],[-2.48133,53.45569],[-2.48044,53.4541],[-2.48034,53.4534],[-2.48024,53.45298],[-2.47825,53.45041],[-2.47947,53.44941],[-2.48158,53.4459],[-2.48248,53.44418],[-2.48281,53.44301],[-2.48315,53.44257],[-2.48151,53.4417],[-2.48095,53.44161],[-2.47938,53.44092],[-2.4773,53.43978],[-2.47642,53.43927],[-2.47445,53.43834],[-2.474,53.43752],[-2.47043,53.4351],[-2.47028,53.43479],[-2.47083,53.42944],[-2.47154,53.42883],[-2.47091,53.42641],[-2.46994,53.42468],[-2.4704,53.42311],[-2.47127,53.4219],[-2.47298,53.41654]]},"properties":{"id":"way/29329906","osm":"https://www.openstreetmap.org/way/29329906","name":"","ug":true}},{"type":"Feature","geometry":{"type":"LineString","coordinates":[[-2.45624,53.26389],[-2.45548,53.2631],[-2.45451,53.26203],[-2.45306,53.26032],[-2.45182,53.25887],[-2.4516,53.25849],[-2.45174,53.25833],[-2.4521,53.25733],[-2.45182,53.2568],[-2.45148,53.25529],[-2.45083,53.25406],[-2.45055,53.25374],[-2.44994,53.25343],[-2.44726,53.25268],[-2.4455,53.25226],[-2.44504,53.25208],[-2.4436,53.25056],[-2.44274,53.24967]]},"properties":{"id":"way/380567551","osm":"https://www.openstreetmap.org/way/380567551","name":"","ug":true}},{"type":"Feature","geometry":{"type":"LineString","coordinates":[[-2.82426,53.77091],[-2.82439,53.77072],[-2.82448,53.76751],[-2.8245,53.76707],[-2.82406,53.76676],[-2.82364,53.76385],[-2.82278,53.76262],[-2.82078,53.75862],[-2.82056,53.75824],[-2.81911,53.75554],[-2.81791,53.75395],[-2.81501,53.75325],[-2.81317,53.74879],[-2.81387,53.74449],[-2.81383,53.74323],[-2.8138,53.74226],[-2.8138,53.74126],[-2.81379,53.74025],[-2.81489,53.73921],[-2.81514,53.73741],[-2.81535,53.73656],[-2.81666,53.72929],[-2.81716,53.72855],[-2.81787,53.72748],[-2.81811,53.72611],[-2.81831,53.72489],[-2.81843,53.72329],[-2.81828,53.71706],[-2.81805,53.71518],[-2.81809,53.71095],[-2.81814,53.71082],[-2.81822,53.71048],[-2.81834,53.71],[-2.81846,53.70952],[-2.81858,53.70904],[-2.8187,53.70855],[-2.81886,53.70623],[-2.81911,53.7037],[-2.81936,53.70199],[-2.8192,53.70034],[-2.81955,53.69554],[-2.81959,53.69393],[-2.81873,53.69105],[-2.81825,53.69016],[-2.81811,53.68996],[-2.81708,53.68978],[-2.81593,53.68958],[-2.81554,53.68953],[-2.81499,53.68944],[-2.81485,53.68939],[-2.81338,53.68772],[-2.81225,53.6866],[-2.80826,53.6827],[-2.80807,53.68231],[-2.80834,53.68181],[-2.80846,53.68166],[-2.8088,53.68096],[-2.80879,53.68081],[-2.80823,53.68007],[-2.80739,53.67859],[-2.8066,53.67676],[-2.80574,53.6743],[-2.80621,53.6702],[-2.80608,53.67004],[-2.80515,53.66971],[-2.80298,53.66906],[-2.80212,53.66901],[-2.80106,53.66906],[-2.80108,53.66944],[-2.80123,53.66944],[-2.80125,53.66962],[-2.80073,53.66963],[-2.79991,53.66517],[-2.79975,53.66427],[-2.79953,53.6632],[-2.7994,53.6626],[-2.79897,53.66039],[-2.79896,53.66021],[-2.79846,53.6485],[-2.79835,53.64686],[-2.79827,53.64675],[-2.79806,53.64668],[-2.79681,53.64639],[-2.79659,53.64626],[-2.79648,53.64602],[-2.79645,53.64566],[-2.79638,53.64496],[-2.79631,53.64427],[-2.79618,53.64317],[-2.7961,53.64244],[-2.79601,53.64172],[-2.79596,53.64128],[-2.79615,53.64082],[-2.79647,53.64008],[-2.79664,53.6397],[-2.80002,53.62904],[-2.80014,53.62894]]},"properties":{"id":"way/1301555591","osm":"https://www.openstreetmap.org/way/1301555591","name":"","ug":true}},{"type":"Feature","geometry":{"type":"LineString","coordinates":[[-2.8205,53.5421],[-2.82036,53.54193],[-2.81642,53.53761],[-2.81467,53.53691],[-2.81136,53.53628],[-2.80998,53.53605],[-2.80915,53.53586],[-2.80831,53.53566],[-2.80762,53.5355],[-2.80567,53.535],[-2.80521,53.53491],[-2.8045,53.53475],[-2.80378,53.5346],[-2.79999,53.53368],[-2.79915,53.53348],[-2.79852,53.53336],[-2.79812,53.53317],[-2.79777,53.53292],[-2.79759,53.53262],[-2.79744,53.53211],[-2.79363,53.52963],[-2.79067,53.52844],[-2.78802,53.52743],[-2.78777,53.52736],[-2.78765,53.5273],[-2.78427,53.52621],[-2.77927,53.52456],[-2.77638,53.52359],[-2.77605,53.52341],[-2.77493,53.52301],[-2.7737,53.52127]]},"properties":{"id":"way/1301564960","osm":"https://www.openstreetmap.org/way/1301564960","name":"","ug":true}},{"type":"Feature","geometry":{"type":"LineString","coordinates":[[-2.83878,53.56088],[-2.83873,53.561]]},"properties":{"id":"way/1301566477","osm":"https://www.openstreetmap.org/way/1301566477","name":"","ug":true}},{"type":"Feature","geometry":{"type":"LineString","coordinates":[[-2.71659,53.45163],[-2.71681,53.45142]]},"properties":{"id":"way/1301640279","osm":"https://www.openstreetmap.org/way/1301640279","name":"","ug":true}},{"type":"Feature","geometry":{"type":"LineString","coordinates":[[-2.64554,53.43832],[-2.64545,53.43827],[-2.64497,53.43796],[-2.64481,53.43778],[-2.64275,53.43383],[-2.64227,53.43251],[-2.64221,53.43238]]},"properties":{"id":"way/1301641732","osm":"https://www.openstreetmap.org/way/1301641732","name":"","ug":true}},{"type":"Feature","geometry":{"type":"LineString","coordinates":[[-2.62052,53.38861],[-2.62055,53.38822]]},"properties":{"id":"way/1301711959","osm":"https://www.openstreetmap.org/way/1301711959","name":"","ug":true}},{"type":"Feature","geometry":{"type":"LineString","coordinates":[[-2.61937,53.35976],[-2.61933,53.35956],[-2.61947,53.35833]]},"properties":{"id":"way/1301738527","osm":"https://www.openstreetmap.org/way/1301738527","name":"","ug":true}},{"type":"Feature","geometry":{"type":"LineString","coordinates":[[-2.70097,53.46182],[-2.7006,53.4614],[-2.70045,53.46128]]},"properties":{"id":"way/1301743216","osm":"https://www.openstreetmap.org/way/1301743216","name":"","ug":true}},{"type":"Feature","geometry":{"type":"LineString","coordinates":[[-2.77207,53.52068],[-2.77176,53.52024],[-2.77149,53.51984],[-2.77118,53.5194],[-2.77081,53.51886],[-2.77043,53.51831],[-2.77005,53.51776],[-2.76977,53.51753],[-2.76935,53.51717],[-2.76886,53.51677],[-2.7685,53.51647],[-2.76818,53.5162],[-2.7673,53.51551],[-2.76519,53.51492],[-2.76371,53.51455],[-2.76277,53.51432],[-2.7594,53.51353],[-2.75708,53.51272],[-2.75236,53.51211],[-2.74955,53.51176],[-2.74935,53.51169],[-2.74715,53.51034],[-2.74674,53.5102],[-2.74379,53.51031],[-2.74255,53.51035],[-2.73842,53.51052],[-2.73771,53.51055],[-2.73578,53.51071],[-2.73309,53.51111],[-2.72902,53.51174],[-2.72449,53.5124],[-2.72431,53.51242],[-2.72405,53.51241],[-2.72233,53.51201],[-2.72045,53.51138],[-2.71797,53.50967],[-2.71666,53.50922]]},"properties":{"id":"way/1301965846","osm":"https://www.openstreetmap.org/way/1301965846","name":"","ug":true}},{"type":"Feature","geometry":{"type":"LineString","coordinates":[[-2.7508,53.61955],[-2.75054,53.61965]]},"properties":{"id":"way/1302136949","osm":"https://www.openstreetmap.org/way/1302136949","name":"","ug":false}},{"type":"Feature","geometry":{"type":"LineString","coordinates":[[-2.75101,53.6196],[-2.75202,53.61927],[-2.75611,53.61864],[-2.76029,53.61831],[-2.76394,53.61789],[-2.76439,53.61774],[-2.76573,53.61601],[-2.76784,53.61506],[-2.76891,53.61456],[-2.76907,53.61448],[-2.77109,53.61313],[-2.77119,53.61305],[-2.77389,53.61133],[-2.77664,53.6095],[-2.77684,53.60878],[-2.77854,53.60804],[-2.78081,53.60716]]},"properties":{"id":"way/1302137943","osm":"https://www.openstreetmap.org/way/1302137943","name":"","ug":true}},{"type":"Feature","geometry":{"type":"LineString","coordinates":[[-2.46617,53.24026],[-2.46601,53.23997]]},"properties":{"id":"way/1302446260","osm":"https://www.openstreetmap.org/way/1302446260","name":"","ug":true}},{"type":"Feature","geometry":{"type":"LineString","coordinates":[[-2.45689,53.27836],[-2.45681,53.27859],[-2.45617,53.2799],[-2.45592,53.28027],[-2.45564,53.28065],[-2.45534,53.281],[-2.45524,53.28116],[-2.4549,53.2817],[-2.45477,53.28204],[-2.45474,53.28227]]},"properties":{"id":"way/1302449990","osm":"https://www.openstreetmap.org/way/1302449990","name":"","ug":true}},{"type":"Feature","geometry":{"type":"LineString","coordinates":[[-2.45707,53.26482],[-2.45714,53.2646]]},"properties":{"id":"way/1302477408","osm":"https://www.openstreetmap.org/way/1302477408","name":"","ug":true}},{"type":"Feature","geometry":{"type":"LineString","coordinates":[[-2.46778,53.2506],[-2.46788,53.25041]]},"properties":{"id":"way/1302478363","osm":"https://www.openstreetmap.org/way/1302478363","name":"","ug":true}},{"type":"Feature","geometry":{"type":"LineString","coordinates":[[-2.45104,53.29951],[-2.45144,53.29911],[-2.45246,53.29801],[-2.45322,53.29709],[-2.45385,53.29634],[-2.45423,53.29593],[-2.45482,53.29533],[-2.45491,53.29515],[-2.4549,53.29477],[-2.45483,53.29399],[-2.45423,53.29348],[-2.45415,53.29336],[-2.45417,53.2928],[-2.45426,53.29162],[-2.45433,53.2908],[-2.45444,53.28991],[-2.45472,53.28801],[-2.45474,53.28794],[-2.45479,53.28733]]},"properties":{"id":"way/1354509248","osm":"https://www.openstreetmap.org/way/1354509248","name":"","ug":true}},{"type":"Feature","geometry":{"type":"LineString","coordinates":[[-2.4568,53.30109],[-2.45661,53.30103],[-2.45501,53.30073],[-2.45459,53.30067],[-2.4529,53.30042],[-2.45174,53.30024],[-2.45135,53.30018],[-2.45108,53.30017],[-2.4498,53.30016],[-2.44804,53.30014],[-2.44661,53.30002],[-2.44557,53.29974],[-2.44381,53.29963],[-2.44274,53.29966],[-2.44244,53.29967],[-2.44224,53.29966],[-2.43786,53.29832]]},"properties":{"id":"way/1354511235","osm":"https://www.openstreetmap.org/way/1354511235","name":"","ug":true}},{"type":"Feature","geometry":{"type":"LineString","coordinates":[[-2.46423,53.39882],[-2.46068,53.39891],[-2.45919,53.39893],[-2.45757,53.39898],[-2.45682,53.39899],[-2.45659,53.39896],[-2.45303,53.39842],[-2.45079,53.39805],[-2.44956,53.39786],[-2.44798,53.3976],[-2.44649,53.39736],[-2.44322,53.39664],[-2.44082,53.39613]]},"properties":{"id":"way/1355287135","osm":"https://www.openstreetmap.org/way/1355287135","name":"","ug":true}},{"type":"Feature","geometry":{"type":"LineString","coordinates":[[-2.4642,53.39857],[-2.46061,53.39865],[-2.45922,53.39868],[-2.45708,53.39872],[-2.45691,53.39872],[-2.455,53.39844],[-2.453,53.39814],[-2.4508,53.39772],[-2.44961,53.3975],[-2.44788,53.39718],[-2.44676,53.39698],[-2.44654,53.39693],[-2.44498,53.39651]]},"properties":{"id":"way/1355287136","osm":"https://www.openstreetmap.org/way/1355287136","name":"","ug":true}},{"type":"Feature","geometry":{"type":"LineString","coordinates":[[-2.4738,53.40133],[-2.47012,53.40015]]},"properties":{"id":"way/1355288140","osm":"https://www.openstreetmap.org/way/1355288140","name":"","ug":true}},{"type":"Feature","geometry":{"type":"LineString","coordinates":[[-2.47039,53.4006],[-2.47368,53.40161]]},"properties":{"id":"way/1355288141","osm":"https://www.openstreetmap.org/way/1355288141","name":"","ug":true}},{"type":"Feature","geometry":{"type":"LineString","coordinates":[[-2.48536,53.40237],[-2.48516,53.40221],[-2.48431,53.40191],[-2.48341,53.40173],[-2.48263,53.40169],[-2.48116,53.4017],[-2.47969,53.4017],[-2.47774,53.40167],[-2.4749,53.40165]]},"properties":{"id":"way/1355288142","osm":"https://www.openstreetmap.org/way/1355288142","name":"","ug":true}},{"type":"Feature","geometry":{"type":"LineString","coordinates":[[-2.4849,53.40241],[-2.48477,53.40231],[-2.4842,53.4021],[-2.48342,53.40194],[-2.48279,53.40189],[-2.48132,53.40188],[-2.47985,53.40187],[-2.47772,53.40184],[-2.47419,53.40182]]},"properties":{"id":"way/1355288143","osm":"https://www.openstreetmap.org/way/1355288143","name":"","ug":true}},{"type":"Feature","geometry":{"type":"LineString","coordinates":[[-2.4346,53.40914],[-2.44938,53.40915],[-2.45588,53.40791],[-2.45641,53.40781],[-2.45754,53.40786]]},"properties":{"id":"way/1355289421","osm":"https://www.openstreetmap.org/way/1355289421","name":"","ug":true}},{"type":"Feature","geometry":{"type":"LineString","coordinates":[[-2.48095,53.41849],[-2.48029,53.41735],[-2.48026,53.41731],[-2.47973,53.41692],[-2.47953,53.41678],[-2.47775,53.41531]]},"properties":{"id":"way/1355289796","osm":"https://www.openstreetmap.org/way/1355289796","name":"","ug":true}},{"type":"Feature","geometry":{"type":"LineString","coordinates":[[-2.46666,53.41288],[-2.46348,53.41063],[-2.46331,53.41053]]},"properties":{"id":"way/1355331863","osm":"https://www.openstreetmap.org/way/1355331863","name":"","ug":true}},{"type":"Feature","geometry":{"type":"LineString","coordinates":[[-2.48109,53.04947],[-2.47742,53.04943],[-2.47427,53.0496],[-2.47159,53.04977],[-2.47043,53.04984],[-2.4691,53.04989],[-2.46789,53.04995],[-2.46624,53.05003],[-2.46479,53.05015],[-2.4635,53.05026],[-2.46252,53.05034],[-2.46101,53.05047],[-2.46019,53.05054],[-2.45805,53.05057],[-2.45782,53.05058],[-2.45774,53.05058],[-2.45368,53.05067],[-2.45318,53.05068],[-2.45198,53.0507],[-2.45101,53.05072]]},"properties":{"id":"way/1453980474","osm":"https://www.openstreetmap.org/way/1453980474","name":"","ug":true}},{"type":"Feature","geometry":{"type":"LineString","coordinates":[[-2.48999,53.04777],[-2.49029,53.04775],[-2.49131,53.04771],[-2.49311,53.04764],[-2.49417,53.04764],[-2.49725,53.04777],[-2.49841,53.0478],[-2.49968,53.04782],[-2.50175,53.04782],[-2.50367,53.04786],[-2.50569,53.04789],[-2.5086,53.04791],[-2.50972,53.04792],[-2.51089,53.04794],[-2.51176,53.04795],[-2.51258,53.04796],[-2.51601,53.04798],[-2.51802,53.04798],[-2.51975,53.04793],[-2.52171,53.04788],[-2.52537,53.04786],[-2.52729,53.04786],[-2.52907,53.04785],[-2.53288,53.04786],[-2.53342,53.04785],[-2.53405,53.04785],[-2.54241,53.04786],[-2.54367,53.04784],[-2.54442,53.04783],[-2.54536,53.04782],[-2.54654,53.04778],[-2.54734,53.04778],[-2.54874,53.04776],[-2.54885,53.04777],[-2.54902,53.04788],[-2.5491,53.0479],[-2.54974,53.04787],[-2.55105,53.04782],[-2.55237,53.04776],[-2.55396,53.0477],[-2.55723,53.04758],[-2.55858,53.04755],[-2.55969,53.04751],[-2.56082,53.04746]]},"properties":{"id":"way/1453983110","osm":"https://www.openstreetmap.org/way/1453983110","name":"","ug":true}},{"type":"Feature","geometry":{"type":"LineString","coordinates":[[-2.57278,53.0449],[-2.57113,53.04526],[-2.57004,53.0455],[-2.56859,53.04584],[-2.56539,53.04631],[-2.56516,53.04631],[-2.56505,53.04638]]},"properties":{"id":"way/1453990160","osm":"https://www.openstreetmap.org/way/1453990160","name":"","ug":true}},{"type":"Feature","geometry":{"type":"LineString","coordinates":[[-2.77658,53.1758],[-2.77639,53.17567]]},"properties":{"id":"way/1457630953","osm":"https://www.openstreetmap.org/way/1457630953","name":"","ug":true}},{"type":"Feature","geometry":{"type":"LineString","coordinates":[[-2.77592,53.17616],[-2.77578,53.1761]]},"properties":{"id":"way/1457630954","osm":"https://www.openstreetmap.org/way/1457630954","name":"","ug":true}},{"type":"Feature","geometry":{"type":"LineString","coordinates":[[-2.82164,53.22429],[-2.82165,53.22426],[-2.82166,53.22422],[-2.82166,53.22417],[-2.82173,53.22415],[-2.82173,53.22413]]},"properties":{"id":"way/1458413610","osm":"https://www.openstreetmap.org/way/1458413610","name":"","ug":false}},{"type":"Feature","geometry":{"type":"LineString","coordinates":[[-2.82166,53.22422],[-2.82159,53.22422],[-2.82155,53.22421]]},"properties":{"id":"way/1458413611","osm":"https://www.openstreetmap.org/way/1458413611","name":"","ug":false}},{"type":"Feature","geometry":{"type":"LineString","coordinates":[[-2.82159,53.22422],[-2.82159,53.2242],[-2.82163,53.2242],[-2.82164,53.22414],[-2.82173,53.22415]]},"properties":{"id":"way/1458413612","osm":"https://www.openstreetmap.org/way/1458413612","name":"","ug":false}},{"type":"Feature","geometry":{"type":"LineString","coordinates":[[-2.82122,53.22397],[-2.82155,53.22388]]},"properties":{"id":"way/1458413613","osm":"https://www.openstreetmap.org/way/1458413613","name":"","ug":false}},{"type":"Feature","geometry":{"type":"LineString","coordinates":[[-2.8212,53.22395],[-2.82153,53.22386]]},"properties":{"id":"way/1458413614","osm":"https://www.openstreetmap.org/way/1458413614","name":"","ug":false}},{"type":"Feature","geometry":{"type":"LineString","coordinates":[[-2.82155,53.2236],[-2.82157,53.22362],[-2.8217,53.22379],[-2.82176,53.22377],[-2.8218,53.22376]]},"properties":{"id":"way/1458413615","osm":"https://www.openstreetmap.org/way/1458413615","name":"","ug":false}},{"type":"Feature","geometry":{"type":"LineString","coordinates":[[-2.82157,53.22362],[-2.82164,53.2236],[-2.82176,53.22377]]},"properties":{"id":"way/1458413616","osm":"https://www.openstreetmap.org/way/1458413616","name":"","ug":false}},{"type":"Feature","geometry":{"type":"LineString","coordinates":[[-2.82186,53.2239],[-2.82177,53.22393],[-2.82176,53.2239]]},"properties":{"id":"way/1458413617","osm":"https://www.openstreetmap.org/way/1458413617","name":"","ug":false}},{"type":"Feature","geometry":{"type":"LineString","coordinates":[[-2.82188,53.22387],[-2.82178,53.22389]]},"properties":{"id":"way/1458413618","osm":"https://www.openstreetmap.org/way/1458413618","name":"","ug":false}},{"type":"Feature","geometry":{"type":"LineString","coordinates":[[-2.82183,53.22382],[-2.82173,53.22384]]},"properties":{"id":"way/1458413619","osm":"https://www.openstreetmap.org/way/1458413619","name":"","ug":false}},{"type":"Feature","geometry":{"type":"LineString","coordinates":[[-2.82182,53.22385],[-2.82173,53.22388],[-2.82171,53.22385]]},"properties":{"id":"way/1458413620","osm":"https://www.openstreetmap.org/way/1458413620","name":"","ug":false}},{"type":"Feature","geometry":{"type":"LineString","coordinates":[[-2.82181,53.22403],[-2.82183,53.22398]]},"properties":{"id":"way/1458413621","osm":"https://www.openstreetmap.org/way/1458413621","name":"","ug":false}},{"type":"Feature","geometry":{"type":"LineString","coordinates":[[-2.82189,53.22405],[-2.82185,53.22401]]},"properties":{"id":"way/1458413622","osm":"https://www.openstreetmap.org/way/1458413622","name":"","ug":false}},{"type":"Feature","geometry":{"type":"LineString","coordinates":[[-2.82194,53.22404],[-2.8219,53.224]]},"properties":{"id":"way/1458413623","osm":"https://www.openstreetmap.org/way/1458413623","name":"","ug":false}},{"type":"Feature","geometry":{"type":"LineString","coordinates":[[-2.8213,53.22364],[-2.82135,53.22371],[-2.8213,53.22372],[-2.82123,53.22363]]},"properties":{"id":"way/1458413624","osm":"https://www.openstreetmap.org/way/1458413624","name":"","ug":false}},{"type":"Feature","geometry":{"type":"LineString","coordinates":[[-2.8212,53.22366],[-2.82125,53.22373],[-2.8212,53.22374],[-2.82113,53.22365]]},"properties":{"id":"way/1458413625","osm":"https://www.openstreetmap.org/way/1458413625","name":"","ug":false}},{"type":"Feature","geometry":{"type":"LineString","coordinates":[[-2.82115,53.22346],[-2.82139,53.22339]]},"properties":{"id":"way/1458413626","osm":"https://www.openstreetmap.org/way/1458413626","name":"","ug":false}},{"type":"Feature","geometry":{"type":"LineString","coordinates":[[-2.82211,53.22411],[-2.82202,53.22398]]},"properties":{"id":"way/1458413627","osm":"https://www.openstreetmap.org/way/1458413627","name":"","ug":false}},{"type":"Feature","geometry":{"type":"LineString","coordinates":[[-2.82388,53.21766],[-2.82368,53.21803],[-2.82352,53.21836],[-2.82338,53.21867],[-2.82312,53.21923],[-2.82286,53.21976],[-2.82252,53.22049],[-2.8224,53.22074],[-2.82226,53.221],[-2.82211,53.22132],[-2.82201,53.2215],[-2.82203,53.22154],[-2.82215,53.22175],[-2.82227,53.22196],[-2.8224,53.22222],[-2.82237,53.22241],[-2.82233,53.22272],[-2.82226,53.22312],[-2.82216,53.22344]]},"properties":{"id":"way/1458413701","osm":"https://www.openstreetmap.org/way/1458413701","name":"","ug":true}},{"type":"Feature","geometry":{"type":"LineString","coordinates":[[-2.82375,53.22531],[-2.82388,53.22538],[-2.82397,53.22547],[-2.82417,53.22577],[-2.82431,53.22608],[-2.82456,53.22616],[-2.82501,53.22627],[-2.82552,53.2264],[-2.82594,53.22652],[-2.8265,53.22668],[-2.827,53.22681],[-2.82751,53.22691],[-2.82774,53.22695]]},"properties":{"id":"way/1458414689","osm":"https://www.openstreetmap.org/way/1458414689","name":"","ug":true}},{"type":"Feature","geometry":{"type":"LineString","coordinates":[[-2.8224,53.22451],[-2.82211,53.22411]]},"properties":{"id":"way/1458414691","osm":"https://www.openstreetmap.org/way/1458414691","name":"","ug":true}}]}