{"type":"FeatureCollection","features":[{"type":"Feature","properties":{"kind":"agi","label":"Governor","note":null,"surveyed":"20260604"},"geometry":{"type":"Point","coordinates":[-3.058541,53.55406]}},{"type":"Feature","properties":{"kind":"agi","label":"Gas Gov","note":null,"surveyed":"20260129"},"geometry":{"type":"Point","coordinates":[-3.072419,53.553078]}},{"type":"Feature","properties":{"kind":"agi","label":"Gas Gov","note":null,"surveyed":"20260604"},"geometry":{"type":"Point","coordinates":[-3.049316,53.497242]}},{"type":"Feature","properties":{"kind":"agi","label":"Governor","note":null,"surveyed":"20251218"},"geometry":{"type":"Point","coordinates":[-3.050966,53.562051]}},{"type":"Feature","properties":{"kind":"agi","label":"Gas Gov Sta","note":null,"surveyed":"20260604"},"geometry":{"type":"Point","coordinates":[-3.049615,53.572056]}},{"type":"Feature","properties":{"kind":"agi","label":"GOVERNOR/METER","note":"from drawing notes","surveyed":"20260604"},"geometry":{"type":"Point","coordinates":[-3.044469,53.569326]}},{"type":"Feature","properties":{"kind":"agi","label":"Gas Gov","note":null,"surveyed":"20251218"},"geometry":{"type":"Point","coordinates":[-3.040252,53.500847]}},{"type":"Feature","properties":{"kind":"agi","label":"Gas Gov","note":null,"surveyed":"20251218"},"geometry":{"type":"Point","coordinates":[-3.035681,53.496401]}},{"type":"Feature","properties":{"kind":"agi","label":"GOVERNOR","note":"from drawing notes","surveyed":"20260604"},"geometry":{"type":"Point","coordinates":[-2.970096,53.493547]}},{"type":"Feature","properties":{"kind":"agi","label":"GOVERNOR SEE","note":"from drawing notes","surveyed":"20251215"},"geometry":{"type":"Point","coordinates":[-2.93931,53.508169]}},{"type":"Feature","properties":{"kind":"agi","label":"Gas Gov","note":null,"surveyed":"20251215"},"geometry":{"type":"Point","coordinates":[-2.944471,53.507831]}},{"type":"Feature","properties":{"kind":"agi","label":"GOVERNOR IN","note":"from drawing notes","surveyed":"20260115"},"geometry":{"type":"Point","coordinates":[-2.942016,53.512334]}},{"type":"Feature","properties":{"kind":"agi","label":"Gas Gov","note":null,"surveyed":"20260604"},"geometry":{"type":"Point","coordinates":[-2.944407,53.511306]}},{"type":"Feature","properties":{"kind":"agi","label":"Gas Gov","note":null,"surveyed":"20251215"},"geometry":{"type":"Point","coordinates":[-2.946078,53.52714]}},{"type":"Feature","properties":{"kind":"agi","label":"Gas Governor","note":null,"surveyed":"20260604"},"geometry":{"type":"Point","coordinates":[-2.930528,53.522082]}},{"type":"Feature","properties":{"kind":"agi","label":"Gas Gov","note":null,"surveyed":"20260204"},"geometry":{"type":"Point","coordinates":[-2.915034,53.517732]}},{"type":"Feature","properties":{"kind":"agi","label":"Gas Meter House","note":null,"surveyed":"20260604"},"geometry":{"type":"Point","coordinates":[-2.976157,53.632886]}},{"type":"Feature","properties":{"kind":"agi","label":"Gas Gov","note":null,"surveyed":"20240525"},"geometry":{"type":"Point","coordinates":[-2.915541,53.680707]}},{"type":"Feature","properties":{"kind":"agi","label":"Gas Gov","note":null,"surveyed":"20260604"},"geometry":{"type":"Point","coordinates":[-2.892358,53.579997]}},{"type":"Feature","properties":{"kind":"agi","label":"Gas Gov","note":null,"surveyed":"20260604"},"geometry":{"type":"Point","coordinates":[-2.872504,53.562001]}},{"type":"Feature","properties":{"kind":"agi","label":"GOVERNOR SEE","note":"from drawing notes","surveyed":"20260604"},"geometry":{"type":"Point","coordinates":[-2.87161,53.570641]}},{"type":"Feature","properties":{"kind":"agi","label":"Gas Meter House","note":null,"surveyed":"20260604"},"geometry":{"type":"Point","coordinates":[-2.877295,53.575415]}},{"type":"Feature","properties":{"kind":"agi","label":"GOVERNOR","note":"from drawing notes","surveyed":"20221026"},"geometry":{"type":"Point","coordinates":[-2.855623,53.563549]}},{"type":"Feature","properties":{"kind":"agi","label":"Gas Valve Compound","note":null,"surveyed":"20260604"},"geometry":{"type":"Point","coordinates":[-2.860885,53.569752]}},{"type":"Feature","properties":{"kind":"agi","label":"GAS VALVE","note":"from drawing notes","surveyed":"20260604"},"geometry":{"type":"Point","coordinates":[-2.860036,53.569436]}},{"type":"Feature","properties":{"kind":"agi","label":"GOVERNOR","note":"from drawing notes","surveyed":"20250922"},"geometry":{"type":"Point","coordinates":[-2.827181,53.565441]}},{"type":"Feature","properties":{"kind":"agi","label":"Gas Gov","note":null,"surveyed":"20260604"},"geometry":{"type":"Point","coordinates":[-2.808697,53.546328]}},{"type":"Feature","properties":{"kind":"agi","label":"Gas Gov","note":null,"surveyed":"20260603"},"geometry":{"type":"Point","coordinates":[-2.794865,53.518134]}},{"type":"Feature","properties":{"kind":"agi","label":"Gas Gov","note":null,"surveyed":"20201014"},"geometry":{"type":"Point","coordinates":[-2.800948,53.538044]}},{"type":"Feature","properties":{"kind":"agi","label":"Gas Gov","note":null,"surveyed":"20260603"},"geometry":{"type":"Point","coordinates":[-2.785085,53.516436]}},{"type":"Feature","properties":{"kind":"agi","label":"Gas Gov","note":null,"surveyed":"20251218"},"geometry":{"type":"Point","coordinates":[-2.777307,53.546307]}},{"type":"Feature","properties":{"kind":"agi","label":"Gas Gov","note":null,"surveyed":"20260604"},"geometry":{"type":"Point","coordinates":[-2.78454,53.542955]}},{"type":"Feature","properties":{"kind":"agi","label":"Gas Gov","note":null,"surveyed":"20260604"},"geometry":{"type":"Point","coordinates":[-2.779935,53.542177]}},{"type":"Feature","properties":{"kind":"agi","label":"Gas Valve Compound","note":null,"surveyed":"20260604"},"geometry":{"type":"Point","coordinates":[-2.762918,53.524696]}},{"type":"Feature","properties":{"kind":"agi","label":"Gas Meter House","note":null,"surveyed":"20260604"},"geometry":{"type":"Point","coordinates":[-2.761455,53.535866]}},{"type":"Feature","properties":{"kind":"agi","label":"Gas Gov","note":null,"surveyed":"20260604"},"geometry":{"type":"Point","coordinates":[-2.768815,53.534189]}},{"type":"Feature","properties":{"kind":"agi","label":"Gas Gov","note":null,"surveyed":"20260604"},"geometry":{"type":"Point","coordinates":[-2.765837,53.533685]}},{"type":"Feature","properties":{"kind":"agi","label":"Gas Gov","note":null,"surveyed":"20260604"},"geometry":{"type":"Point","coordinates":[-2.769318,53.533071]}},{"type":"Feature","properties":{"kind":"agi","label":"Gas Meter House","note":null,"surveyed":"20260604"},"geometry":{"type":"Point","coordinates":[-2.76138,53.549878]}},{"type":"Feature","properties":{"kind":"agi","label":"Gas Gov","note":null,"surveyed":"20260604"},"geometry":{"type":"Point","coordinates":[-2.75817,53.552399]}},{"type":"Feature","properties":{"kind":"agi","label":"Gas Gov","note":null,"surveyed":"20260604"},"geometry":{"type":"Point","coordinates":[-2.769379,53.552625]}},{"type":"Feature","properties":{"kind":"agi","label":"Gas Gov","note":null,"surveyed":"20260604"},"geometry":{"type":"Point","coordinates":[-2.762364,53.557687]}},{"type":"Feature","properties":{"kind":"agi","label":"Gas Gov","note":null,"surveyed":"20260604"},"geometry":{"type":"Point","coordinates":[-2.765641,53.55993]}},{"type":"Feature","properties":{"kind":"agi","label":"GVC","note":null,"surveyed":"20251025"},"geometry":{"type":"Point","coordinates":[-2.877311,53.652314]}},{"type":"Feature","properties":{"kind":"agi","label":"Gas Gov","note":null,"surveyed":"20201014"},"geometry":{"type":"Point","coordinates":[-2.825587,53.588823]}},{"type":"Feature","properties":{"kind":"agi","label":"Gas Gov","note":null,"surveyed":"20250827"},"geometry":{"type":"Point","coordinates":[-2.821568,53.586793]}},{"type":"Feature","properties":{"kind":"agi","label":"Gas Gov","note":null,"surveyed":"20201014"},"geometry":{"type":"Point","coordinates":[-2.814493,53.588424]}},{"type":"Feature","properties":{"kind":"agi","label":"GOVERNOR","note":"from drawing notes","surveyed":"20260603"},"geometry":{"type":"Point","coordinates":[-2.810454,53.594719]}},{"type":"Feature","properties":{"kind":"agi","label":"GVC","note":null,"surveyed":"20201014"},"geometry":{"type":"Point","coordinates":[-2.746812,53.510185]}},{"type":"Feature","properties":{"kind":"agi","label":"GVC","note":null,"surveyed":"20251214"},"geometry":{"type":"Point","coordinates":[-2.747373,53.503742]}},{"type":"Feature","properties":{"kind":"agi","label":"Gas Gov","note":null,"surveyed":"20251220"},"geometry":{"type":"Point","coordinates":[-2.741162,53.528655]}},{"type":"Feature","properties":{"kind":"agi","label":"Gas Gov","note":null,"surveyed":"20260604"},"geometry":{"type":"Point","coordinates":[-2.75449,53.528773]}},{"type":"Feature","properties":{"kind":"agi","label":"Gas Gov","note":null,"surveyed":"20260604"},"geometry":{"type":"Point","coordinates":[-2.742931,53.538156]}},{"type":"Feature","properties":{"kind":"agi","label":"GOVERNOR","note":"from drawing notes","surveyed":"20260604"},"geometry":{"type":"Point","coordinates":[-2.751043,53.537865]}},{"type":"Feature","properties":{"kind":"agi","label":"GOVERNOR","note":"from drawing notes","surveyed":"20260221"},"geometry":{"type":"Point","coordinates":[-2.74413,53.531628]}},{"type":"Feature","properties":{"kind":"agi","label":"GOVERNOR","note":"from drawing notes","surveyed":"20260221"},"geometry":{"type":"Point","coordinates":[-2.74239,53.531306]}},{"type":"Feature","properties":{"kind":"agi","label":"Gas Gov","note":null,"surveyed":"20260604"},"geometry":{"type":"Point","coordinates":[-2.727103,53.542033]}},{"type":"Feature","properties":{"kind":"agi","label":"GOVERNOR","note":"from drawing notes","surveyed":"20260604"},"geometry":{"type":"Point","coordinates":[-2.737767,53.540166]}},{"type":"Feature","properties":{"kind":"agi","label":"Gas Gov","note":null,"surveyed":"20260603"},"geometry":{"type":"Point","coordinates":[-2.70998,53.494813]}},{"type":"Feature","properties":{"kind":"agi","label":"GOVERNOR","note":"from drawing notes","surveyed":"20260604"},"geometry":{"type":"Point","coordinates":[-2.714128,53.519045]}},{"type":"Feature","properties":{"kind":"agi","label":"Gas Gov","note":null,"surveyed":"20260604"},"geometry":{"type":"Point","coordinates":[-2.711708,53.517003]}},{"type":"Feature","properties":{"kind":"agi","label":"Gas Gov","note":null,"surveyed":"20260604"},"geometry":{"type":"Point","coordinates":[-2.71466,53.522834]}},{"type":"Feature","properties":{"kind":"agi","label":"Gas Gov","note":null,"surveyed":"20260603"},"geometry":{"type":"Point","coordinates":[-2.697758,53.530499]}},{"type":"Feature","properties":{"kind":"agi","label":"Gas Gov","note":null,"surveyed":"20260604"},"geometry":{"type":"Point","coordinates":[-2.704185,53.541734]}},{"type":"Feature","properties":{"kind":"agi","label":"GVC","note":null,"surveyed":"20251217"},"geometry":{"type":"Point","coordinates":[-2.698508,53.573037]}},{"type":"Feature","properties":{"kind":"agi","label":"Gas Gov","note":null,"surveyed":"20260604"},"geometry":{"type":"Point","coordinates":[-2.687435,53.532867]}},{"type":"Feature","properties":{"kind":"agi","label":"Gas Gov","note":null,"surveyed":"20260604"},"geometry":{"type":"Point","coordinates":[-2.682874,53.542626]}},{"type":"Feature","properties":{"kind":"agi","label":"Gas Gov","note":null,"surveyed":"20260603"},"geometry":{"type":"Point","coordinates":[-2.68305,53.550961]}},{"type":"Feature","properties":{"kind":"agi","label":"Gas Gov","note":null,"surveyed":"20260603"},"geometry":{"type":"Point","coordinates":[-2.682537,53.577924]}},{"type":"Feature","properties":{"kind":"agi","label":"Gas Gov","note":null,"surveyed":"20260604"},"geometry":{"type":"Point","coordinates":[-2.666943,53.532392]}},{"type":"Feature","properties":{"kind":"agi","label":"Gas Gov","note":null,"surveyed":"20251218"},"geometry":{"type":"Point","coordinates":[-2.669985,53.554244]}},{"type":"Feature","properties":{"kind":"agi","label":"Gas Gov","note":null,"surveyed":"20260604"},"geometry":{"type":"Point","coordinates":[-2.680688,53.554074]}},{"type":"Feature","properties":{"kind":"agi","label":"Gas Gov","note":null,"surveyed":"20260604"},"geometry":{"type":"Point","coordinates":[-2.673705,53.554218]}},{"type":"Feature","properties":{"kind":"agi","label":"Gas Gov","note":null,"surveyed":"20260604"},"geometry":{"type":"Point","coordinates":[-2.680039,53.554837]}},{"type":"Feature","properties":{"kind":"agi","label":"Gas Gov","note":null,"surveyed":"20260604"},"geometry":{"type":"Point","coordinates":[-2.65152,53.519228]}},{"type":"Feature","properties":{"kind":"agi","label":"Gas Gov","note":null,"surveyed":"20260604"},"geometry":{"type":"Point","coordinates":[-2.663683,53.531322]}},{"type":"Feature","properties":{"kind":"agi","label":"Gas Gov","note":null,"surveyed":"20260604"},"geometry":{"type":"Point","coordinates":[-2.659047,53.545931]}},{"type":"Feature","properties":{"kind":"agi","label":"Gas Gov","note":null,"surveyed":"20260604"},"geometry":{"type":"Point","coordinates":[-2.647824,53.525837]}},{"type":"Feature","properties":{"kind":"agi","label":"Gas Gov","note":null,"surveyed":"20260604"},"geometry":{"type":"Point","coordinates":[-2.639983,53.533512]}},{"type":"Feature","properties":{"kind":"agi","label":"Gas Gov","note":null,"surveyed":"20260604"},"geometry":{"type":"Point","coordinates":[-2.647757,53.549126]}},{"type":"Feature","properties":{"kind":"agi","label":"Gas Gov","note":null,"surveyed":"20260604"},"geometry":{"type":"Point","coordinates":[-2.645342,53.561648]}},{"type":"Feature","properties":{"kind":"agi","label":"Gas Gov","note":null,"surveyed":"20260604"},"geometry":{"type":"Point","coordinates":[-2.630093,53.538495]}},{"type":"Feature","properties":{"kind":"agi","label":"Gas Works","note":null,"surveyed":"20260604"},"geometry":{"type":"Point","coordinates":[-2.626949,53.54181]}},{"type":"Feature","properties":{"kind":"agi","label":"GVC","note":null,"surveyed":"20251214"},"geometry":{"type":"Point","coordinates":[-2.72429,53.591307]}},{"type":"Feature","properties":{"kind":"agi","label":"GVC","note":null,"surveyed":"20260604"},"geometry":{"type":"Point","coordinates":[-2.676871,53.670367]}},{"type":"Feature","properties":{"kind":"agi","label":"Gas Gov","note":null,"surveyed":"20260603"},"geometry":{"type":"Point","coordinates":[-2.653564,53.62882]}},{"type":"Feature","properties":{"kind":"agi","label":"Gas Valve","note":null,"surveyed":"20260604"},"geometry":{"type":"Point","coordinates":[-2.66609,53.663521]}},{"type":"Feature","properties":{"kind":"agi","label":"GVC","note":null,"surveyed":"20260604"},"geometry":{"type":"Point","coordinates":[-2.667414,53.671604]}},{"type":"Feature","properties":{"kind":"agi","label":"GVC","note":null,"surveyed":"20260110"},"geometry":{"type":"Point","coordinates":[-2.641815,53.588227]}},{"type":"Feature","properties":{"kind":"agi","label":"Gas Gov","note":null,"surveyed":"20251218"},"geometry":{"type":"Point","coordinates":[-2.624334,53.64497]}},{"type":"Feature","properties":{"kind":"agi","label":"Gas Gov","note":null,"surveyed":"20260604"},"geometry":{"type":"Point","coordinates":[-2.624016,53.65238]}},{"type":"Feature","properties":{"kind":"agi","label":"Gas Gov","note":null,"surveyed":"20251218"},"geometry":{"type":"Point","coordinates":[-2.614443,53.648552]}},{"type":"Feature","properties":{"kind":"agi","label":"Gas Gov","note":null,"surveyed":"20250729"},"geometry":{"type":"Point","coordinates":[-2.676371,53.681436]}},{"type":"Feature","properties":{"kind":"agi","label":"Gas Gov","note":null,"surveyed":"20260603"},"geometry":{"type":"Point","coordinates":[-2.61328,53.681002]}},{"type":"Feature","properties":{"kind":"agi","label":"Gas Gov","note":null,"surveyed":"20260604"},"geometry":{"type":"Point","coordinates":[-2.597221,53.520415]}},{"type":"Feature","properties":{"kind":"agi","label":"Gas Governor","note":null,"surveyed":"20260604"},"geometry":{"type":"Point","coordinates":[-2.603725,53.52372]}},{"type":"Feature","properties":{"kind":"agi","label":"Gas Gov","note":null,"surveyed":"20260603"},"geometry":{"type":"Point","coordinates":[-2.582099,53.570932]}},{"type":"Feature","properties":{"kind":"agi","label":"Gas Gov","note":null,"surveyed":"20260604"},"geometry":{"type":"Point","coordinates":[-2.569762,53.535821]}},{"type":"Feature","properties":{"kind":"agi","label":"Gas Valve","note":null,"surveyed":"20260128"},"geometry":{"type":"Point","coordinates":[-2.545902,53.518284]}},{"type":"Feature","properties":{"kind":"agi","label":"Gas Gov","note":null,"surveyed":"20260204"},"geometry":{"type":"Point","coordinates":[-2.548003,53.532123]}},{"type":"Feature","properties":{"kind":"agi","label":"GOVERNOR","note":"from drawing notes","surveyed":"20251218"},"geometry":{"type":"Point","coordinates":[-2.535974,53.506563]}},{"type":"Feature","properties":{"kind":"agi","label":"Gas Governor","note":null,"surveyed":"20260604"},"geometry":{"type":"Point","coordinates":[-2.535409,53.560582]}},{"type":"Feature","properties":{"kind":"agi","label":"Gas Gov","note":null,"surveyed":"20260101"},"geometry":{"type":"Point","coordinates":[-2.51432,53.505688]}},{"type":"Feature","properties":{"kind":"agi","label":"Gas Gov","note":null,"surveyed":"20251218"},"geometry":{"type":"Point","coordinates":[-2.527921,53.513655]}},{"type":"Feature","properties":{"kind":"agi","label":"GOVERNOR","note":"from drawing notes","surveyed":"20251218"},"geometry":{"type":"Point","coordinates":[-2.527779,53.513593]}},{"type":"Feature","properties":{"kind":"agi","label":"Gas Gov","note":null,"surveyed":"20251218"},"geometry":{"type":"Point","coordinates":[-2.516456,53.523621]}},{"type":"Feature","properties":{"kind":"agi","label":"GOVERNOR","note":"from drawing notes","surveyed":"20260604"},"geometry":{"type":"Point","coordinates":[-2.506878,53.528904]}},{"type":"Feature","properties":{"kind":"agi","label":"Gas Governor","note":null,"surveyed":"20260604"},"geometry":{"type":"Point","coordinates":[-2.509246,53.555058]}},{"type":"Feature","properties":{"kind":"agi","label":"Gas Gov","note":null,"surveyed":"20260122"},"geometry":{"type":"Point","coordinates":[-2.51156,53.553001]}},{"type":"Feature","properties":{"kind":"agi","label":"Gas Gov","note":null,"surveyed":"20260604"},"geometry":{"type":"Point","coordinates":[-2.490059,53.526051]}},{"type":"Feature","properties":{"kind":"agi","label":"Gas Gov","note":null,"surveyed":"20260604"},"geometry":{"type":"Point","coordinates":[-2.482727,53.521473]}},{"type":"Feature","properties":{"kind":"agi","label":"Gas Gov","note":null,"surveyed":"20260110"},"geometry":{"type":"Point","coordinates":[-2.467002,53.511756]}},{"type":"Feature","properties":{"kind":"agi","label":"GVC","note":null,"surveyed":"20260603"},"geometry":{"type":"Point","coordinates":[-2.457505,53.526047]}},{"type":"Feature","properties":{"kind":"agi","label":"Gas Gov","note":null,"surveyed":"20260603"},"geometry":{"type":"Point","coordinates":[-2.59546,53.602785]}},{"type":"Feature","properties":{"kind":"agi","label":"Gas Gov","note":null,"surveyed":"20260603"},"geometry":{"type":"Point","coordinates":[-2.605629,53.614078]}},{"type":"Feature","properties":{"kind":"agi","label":"GVC","note":null,"surveyed":"20201014"},"geometry":{"type":"Point","coordinates":[-2.598503,53.668707]}},{"type":"Feature","properties":{"kind":"agi","label":"Gas Gov","note":null,"surveyed":"20260603"},"geometry":{"type":"Point","coordinates":[-2.578301,53.594167]}},{"type":"Feature","properties":{"kind":"agi","label":"GOVERNOR FITTED","note":"from drawing notes","surveyed":"20260604"},"geometry":{"type":"Point","coordinates":[-2.566118,53.5944]}},{"type":"Feature","properties":{"kind":"agi","label":"Gas Gov","note":null,"surveyed":"20251214"},"geometry":{"type":"Point","coordinates":[-2.492825,53.636789]}},{"type":"Feature","properties":{"kind":"agi","label":"Gas Gov","note":null,"surveyed":"20251215"},"geometry":{"type":"Point","coordinates":[-2.471814,53.597416]}},{"type":"Feature","properties":{"kind":"agi","label":"Gas Gov","note":null,"surveyed":"20260604"},"geometry":{"type":"Point","coordinates":[-2.45315,53.512198]}},{"type":"Feature","properties":{"kind":"agi","label":"Gas Gov","note":null,"surveyed":"20260604"},"geometry":{"type":"Point","coordinates":[-2.424826,53.507525]}},{"type":"Feature","properties":{"kind":"agi","label":"Gas Gov","note":null,"surveyed":"20260217"},"geometry":{"type":"Point","coordinates":[-2.438767,53.538172]}},{"type":"Feature","properties":{"kind":"agi","label":"Gas Gov","note":null,"surveyed":"20260604"},"geometry":{"type":"Point","coordinates":[-2.421828,53.502891]}},{"type":"Feature","properties":{"kind":"agi","label":"Gas Gov","note":null,"surveyed":"20251218"},"geometry":{"type":"Point","coordinates":[-2.418855,53.534775]}},{"type":"Feature","properties":{"kind":"agi","label":"Gas Gov","note":null,"surveyed":"20260604"},"geometry":{"type":"Point","coordinates":[-2.415414,53.561663]}},{"type":"Feature","properties":{"kind":"agi","label":"Gas Gov","note":null,"surveyed":"20260604"},"geometry":{"type":"Point","coordinates":[-2.404715,53.51822]}},{"type":"Feature","properties":{"kind":"agi","label":"Gas Gov","note":null,"surveyed":"20260203"},"geometry":{"type":"Point","coordinates":[-2.402333,53.527781]}},{"type":"Feature","properties":{"kind":"agi","label":"Gas Gov","note":null,"surveyed":"20260604"},"geometry":{"type":"Point","coordinates":[-2.393449,53.574638]}},{"type":"Feature","properties":{"kind":"agi","label":"Gas Gov","note":null,"surveyed":"20260604"},"geometry":{"type":"Point","coordinates":[-2.354716,53.508244]}},{"type":"Feature","properties":{"kind":"agi","label":"GOVERNOR","note":"from drawing notes","surveyed":"20260604"},"geometry":{"type":"Point","coordinates":[-2.345023,53.504754]}},{"type":"Feature","properties":{"kind":"agi","label":"Gas Gov","note":null,"surveyed":"20260604"},"geometry":{"type":"Point","coordinates":[-2.343907,53.528397]}},{"type":"Feature","properties":{"kind":"agi","label":"Gas Gov","note":null,"surveyed":"20250729"},"geometry":{"type":"Point","coordinates":[-2.318427,53.514558]}},{"type":"Feature","properties":{"kind":"agi","label":"Gas Gov","note":null,"surveyed":"20251218"},"geometry":{"type":"Point","coordinates":[-2.331608,53.525506]}},{"type":"Feature","properties":{"kind":"agi","label":"Governor","note":null,"surveyed":"20260110"},"geometry":{"type":"Point","coordinates":[-2.315756,53.538386]}},{"type":"Feature","properties":{"kind":"agi","label":"Gas Gov","note":null,"surveyed":"20260604"},"geometry":{"type":"Point","coordinates":[-2.402039,53.594361]}},{"type":"Feature","properties":{"kind":"agi","label":"Gas Gov","note":null,"surveyed":"20251218"},"geometry":{"type":"Point","coordinates":[-2.397314,53.60363]}},{"type":"Feature","properties":{"kind":"agi","label":"Gas Gov","note":null,"surveyed":"20260603"},"geometry":{"type":"Point","coordinates":[-2.392544,53.646975]}},{"type":"Feature","properties":{"kind":"agi","label":"Gas Gov","note":null,"surveyed":"20251214"},"geometry":{"type":"Point","coordinates":[-2.393955,53.661651]}},{"type":"Feature","properties":{"kind":"agi","label":"Gas Gov","note":null,"surveyed":"20260604"},"geometry":{"type":"Point","coordinates":[-2.339972,53.616905]}},{"type":"Feature","properties":{"kind":"agi","label":"Gas Gov","note":null,"surveyed":"20260604"},"geometry":{"type":"Point","coordinates":[-2.329823,53.605845]}},{"type":"Feature","properties":{"kind":"agi","label":"Gas Gov","note":null,"surveyed":"20260604"},"geometry":{"type":"Point","coordinates":[-2.333535,53.633938]}},{"type":"Feature","properties":{"kind":"agi","label":"Gas Governor","note":null,"surveyed":"20251218"},"geometry":{"type":"Point","coordinates":[-2.316735,53.63178]}},{"type":"Feature","properties":{"kind":"agi","label":"Gas Gov","note":null,"surveyed":"20251214"},"geometry":{"type":"Point","coordinates":[-2.335653,53.676958]}},{"type":"Feature","properties":{"kind":"agi","label":"Gas Gov","note":null,"surveyed":"20260113"},"geometry":{"type":"Point","coordinates":[-2.332389,53.683805]}},{"type":"Feature","properties":{"kind":"agi","label":"Gas Valve Compound","note":null,"surveyed":"20260113"},"geometry":{"type":"Point","coordinates":[-2.330688,53.680553]}},{"type":"Feature","properties":{"kind":"agi","label":"Gas Gov","note":null,"surveyed":"20260604"},"geometry":{"type":"Point","coordinates":[-2.313922,53.693241]}},{"type":"Feature","properties":{"kind":"agi","label":"Gas Gov","note":null,"surveyed":"20260603"},"geometry":{"type":"Point","coordinates":[-3.170849,53.37132]}},{"type":"Feature","properties":{"kind":"agi","label":"Gas Gov","note":null,"surveyed":"20260603"},"geometry":{"type":"Point","coordinates":[-3.148139,53.360657]}},{"type":"Feature","properties":{"kind":"agi","label":"Governor","note":null,"surveyed":"20251220"},"geometry":{"type":"Point","coordinates":[-3.113545,53.358675]}},{"type":"Feature","properties":{"kind":"agi","label":"Gas Governor","note":null,"surveyed":"20251218"},"geometry":{"type":"Point","coordinates":[-3.126511,53.37794]}},{"type":"Feature","properties":{"kind":"agi","label":"Gas Gov","note":null,"surveyed":"20260604"},"geometry":{"type":"Point","coordinates":[-3.122539,53.388551]}},{"type":"Feature","properties":{"kind":"agi","label":"Governor","note":null,"surveyed":"20260604"},"geometry":{"type":"Point","coordinates":[-3.122118,53.397069]}},{"type":"Feature","properties":{"kind":"agi","label":"Gas Gov","note":null,"surveyed":"20260604"},"geometry":{"type":"Point","coordinates":[-3.11122,53.337195]}},{"type":"Feature","properties":{"kind":"agi","label":"Gas Governor","note":null,"surveyed":"20251212"},"geometry":{"type":"Point","coordinates":[-3.107108,53.373487]}},{"type":"Feature","properties":{"kind":"agi","label":"Gas Governor","note":null,"surveyed":"20260604"},"geometry":{"type":"Point","coordinates":[-3.108912,53.395173]}},{"type":"Feature","properties":{"kind":"agi","label":"Gas Gov","note":null,"surveyed":"20260604"},"geometry":{"type":"Point","coordinates":[-3.095457,53.31728]}},{"type":"Feature","properties":{"kind":"agi","label":"Governor","note":null,"surveyed":"20230330"},"geometry":{"type":"Point","coordinates":[-3.083426,53.345455]}},{"type":"Feature","properties":{"kind":"agi","label":"Gas Gov","note":null,"surveyed":"20260604"},"geometry":{"type":"Point","coordinates":[-3.095767,53.349438]}},{"type":"Feature","properties":{"kind":"agi","label":"Gas Meter House","note":null,"surveyed":"20220701"},"geometry":{"type":"Point","coordinates":[-3.077622,53.350579]}},{"type":"Feature","properties":{"kind":"agi","label":"Governor","note":null,"surveyed":"20220701"},"geometry":{"type":"Point","coordinates":[-3.082743,53.350978]}},{"type":"Feature","properties":{"kind":"agi","label":"Gas Valve Compound","note":null,"surveyed":"20260604"},"geometry":{"type":"Point","coordinates":[-3.075535,53.368986]}},{"type":"Feature","properties":{"kind":"agi","label":"Gas Gov","note":null,"surveyed":"20260604"},"geometry":{"type":"Point","coordinates":[-3.082052,53.379264]}},{"type":"Feature","properties":{"kind":"agi","label":"Gas Governor","note":null,"surveyed":"20260604"},"geometry":{"type":"Point","coordinates":[-3.081615,53.378974]}},{"type":"Feature","properties":{"kind":"agi","label":"Gas Governor","note":null,"surveyed":"20260604"},"geometry":{"type":"Point","coordinates":[-3.076948,53.375104]}},{"type":"Feature","properties":{"kind":"agi","label":"Gas Governor","note":null,"surveyed":"20260604"},"geometry":{"type":"Point","coordinates":[-3.067458,53.378608]}},{"type":"Feature","properties":{"kind":"agi","label":"Gas Gov","note":null,"surveyed":"20260116"},"geometry":{"type":"Point","coordinates":[-3.102311,53.410555]}},{"type":"Feature","properties":{"kind":"agi","label":"Gas Gov","note":null,"surveyed":"20260604"},"geometry":{"type":"Point","coordinates":[-3.081454,53.403789]}},{"type":"Feature","properties":{"kind":"agi","label":"Gas Gov","note":null,"surveyed":"20260604"},"geometry":{"type":"Point","coordinates":[-3.072351,53.41164]}},{"type":"Feature","properties":{"kind":"agi","label":"Gas Gov","note":null,"surveyed":"20260604"},"geometry":{"type":"Point","coordinates":[-3.061775,53.406116]}},{"type":"Feature","properties":{"kind":"agi","label":"Gas Valve Station","note":null,"surveyed":"20251214"},"geometry":{"type":"Point","coordinates":[-2.99712,53.147814]}},{"type":"Feature","properties":{"kind":"agi","label":"Gas Governor","note":null,"surveyed":"20251220"},"geometry":{"type":"Point","coordinates":[-2.92714,53.171728]}},{"type":"Feature","properties":{"kind":"agi","label":"Governor","note":null,"surveyed":"20260604"},"geometry":{"type":"Point","coordinates":[-2.916512,53.180083]}},{"type":"Feature","properties":{"kind":"agi","label":"Gas Gov","note":null,"surveyed":"20251218"},"geometry":{"type":"Point","coordinates":[-2.899271,53.160035]}},{"type":"Feature","properties":{"kind":"agi","label":"Gas Gov","note":null,"surveyed":"20260130"},"geometry":{"type":"Point","coordinates":[-2.981714,53.305511]}},{"type":"Feature","properties":{"kind":"agi","label":"Governor","note":null,"surveyed":"20260604"},"geometry":{"type":"Point","coordinates":[-2.940425,53.285278]}},{"type":"Feature","properties":{"kind":"agi","label":"Governor","note":null,"surveyed":"20260604"},"geometry":{"type":"Point","coordinates":[-2.941297,53.280022]}},{"type":"Feature","properties":{"kind":"agi","label":"GOVERNOR","note":"from drawing notes","surveyed":"20260604"},"geometry":{"type":"Point","coordinates":[-2.922501,53.253532]}},{"type":"Feature","properties":{"kind":"agi","label":"GVC","note":null,"surveyed":"20260115"},"geometry":{"type":"Point","coordinates":[-2.918306,53.281054]}},{"type":"Feature","properties":{"kind":"agi","label":"Gas Gov","note":null,"surveyed":"20251215"},"geometry":{"type":"Point","coordinates":[-2.92103,53.292907]}},{"type":"Feature","properties":{"kind":"agi","label":"Gas Gov","note":null,"surveyed":"20251212"},"geometry":{"type":"Point","coordinates":[-2.916896,53.287452]}},{"type":"Feature","properties":{"kind":"agi","label":"Gas Governor","note":null,"surveyed":"20260604"},"geometry":{"type":"Point","coordinates":[-2.913064,53.289414]}},{"type":"Feature","properties":{"kind":"agi","label":"Gas Gov","note":null,"surveyed":"20251214"},"geometry":{"type":"Point","coordinates":[-3.040521,53.339579]}},{"type":"Feature","properties":{"kind":"agi","label":"Gas Gov","note":null,"surveyed":"20230825"},"geometry":{"type":"Point","coordinates":[-3.027867,53.332982]}},{"type":"Feature","properties":{"kind":"agi","label":"Gas Governor","note":null,"surveyed":"20260604"},"geometry":{"type":"Point","coordinates":[-3.024041,53.354293]}},{"type":"Feature","properties":{"kind":"agi","label":"Governor","note":null,"surveyed":"20260604"},"geometry":{"type":"Point","coordinates":[-3.026561,53.361008]}},{"type":"Feature","properties":{"kind":"agi","label":"GOVERNOR","note":"from drawing notes","surveyed":"20260213"},"geometry":{"type":"Point","coordinates":[-3.017189,53.364629]}},{"type":"Feature","properties":{"kind":"agi","label":"Governor","note":null,"surveyed":"20251217"},"geometry":{"type":"Point","coordinates":[-3.002885,53.356544]}},{"type":"Feature","properties":{"kind":"agi","label":"Gas Gov","note":null,"surveyed":"20260604"},"geometry":{"type":"Point","coordinates":[-2.978359,53.336076]}},{"type":"Feature","properties":{"kind":"agi","label":"Gas Gov","note":null,"surveyed":"20260604"},"geometry":{"type":"Point","coordinates":[-2.987537,53.346406]}},{"type":"Feature","properties":{"kind":"agi","label":"Gas Gov","note":null,"surveyed":"20251217"},"geometry":{"type":"Point","coordinates":[-2.986848,53.39057]}},{"type":"Feature","properties":{"kind":"agi","label":"Governor","note":null,"surveyed":"20260206"},"geometry":{"type":"Point","coordinates":[-2.965391,53.319724]}},{"type":"Feature","properties":{"kind":"agi","label":"Governor","note":null,"surveyed":"20260206"},"geometry":{"type":"Point","coordinates":[-2.962972,53.317806]}},{"type":"Feature","properties":{"kind":"agi","label":"Gas Governor","note":null,"surveyed":"20251218"},"geometry":{"type":"Point","coordinates":[-2.971809,53.326606]}},{"type":"Feature","properties":{"kind":"agi","label":"Gas Gov","note":null,"surveyed":"20260604"},"geometry":{"type":"Point","coordinates":[-2.971185,53.331809]}},{"type":"Feature","properties":{"kind":"agi","label":"Gas Gov","note":null,"surveyed":"20250610"},"geometry":{"type":"Point","coordinates":[-2.976272,53.352025]}},{"type":"Feature","properties":{"kind":"agi","label":"Gas Meter House","note":null,"surveyed":"20250610"},"geometry":{"type":"Point","coordinates":[-2.977463,53.352616]}},{"type":"Feature","properties":{"kind":"agi","label":"Gas Gov","note":null,"surveyed":"20260123"},"geometry":{"type":"Point","coordinates":[-2.952006,53.37331]}},{"type":"Feature","properties":{"kind":"agi","label":"Gas Gov","note":null,"surveyed":"20260604"},"geometry":{"type":"Point","coordinates":[-2.939874,53.395392]}},{"type":"Feature","properties":{"kind":"agi","label":"Gas Gov","note":null,"surveyed":"20260604"},"geometry":{"type":"Point","coordinates":[-2.927294,53.379979]}},{"type":"Feature","properties":{"kind":"agi","label":"Gas Governor","note":null,"surveyed":"20260604"},"geometry":{"type":"Point","coordinates":[-2.905276,53.381249]}},{"type":"Feature","properties":{"kind":"agi","label":"Gas Gov","note":null,"surveyed":"20260604"},"geometry":{"type":"Point","coordinates":[-3.047988,53.439506]}},{"type":"Feature","properties":{"kind":"agi","label":"GOVERNOR HOUSE","note":"from drawing notes","surveyed":"20260604"},"geometry":{"type":"Point","coordinates":[-3.039747,53.424356]}},{"type":"Feature","properties":{"kind":"agi","label":"Gas Gov","note":null,"surveyed":"20260604"},"geometry":{"type":"Point","coordinates":[-3.024385,53.468554]}},{"type":"Feature","properties":{"kind":"agi","label":"Gas Gov Ho","note":null,"surveyed":"20260604"},"geometry":{"type":"Point","coordinates":[-3.019726,53.469782]}},{"type":"Feature","properties":{"kind":"agi","label":"Gas Gov","note":null,"surveyed":"20251215"},"geometry":{"type":"Point","coordinates":[-2.998156,53.422275]}},{"type":"Feature","properties":{"kind":"agi","label":"GVC","note":null,"surveyed":"20251215"},"geometry":{"type":"Point","coordinates":[-2.996541,53.424279]}},{"type":"Feature","properties":{"kind":"agi","label":"Gas Gov","note":null,"surveyed":"20250617"},"geometry":{"type":"Point","coordinates":[-3.007451,53.47703]}},{"type":"Feature","properties":{"kind":"agi","label":"Gas Gov","note":null,"surveyed":"20260211"},"geometry":{"type":"Point","coordinates":[-2.990926,53.424815]}},{"type":"Feature","properties":{"kind":"agi","label":"Gas Gov","note":null,"surveyed":"20260604"},"geometry":{"type":"Point","coordinates":[-2.992932,53.465774]}},{"type":"Feature","properties":{"kind":"agi","label":"Gas Gov","note":null,"surveyed":"20260604"},"geometry":{"type":"Point","coordinates":[-2.989364,53.482249]}},{"type":"Feature","properties":{"kind":"agi","label":"GOVERNOR","note":"from drawing notes","surveyed":"20260604"},"geometry":{"type":"Point","coordinates":[-2.992,53.478688]}},{"type":"Feature","properties":{"kind":"agi","label":"Governor","note":null,"surveyed":"20260604"},"geometry":{"type":"Point","coordinates":[-2.992298,53.487686]}},{"type":"Feature","properties":{"kind":"agi","label":"Gas Governor","note":null,"surveyed":"20260604"},"geometry":{"type":"Point","coordinates":[-2.970718,53.417846]}},{"type":"Feature","properties":{"kind":"agi","label":"Gas Gov","note":null,"surveyed":"20260604"},"geometry":{"type":"Point","coordinates":[-2.969712,53.416301]}},{"type":"Feature","properties":{"kind":"agi","label":"Gas Gov","note":null,"surveyed":"20260604"},"geometry":{"type":"Point","coordinates":[-2.975674,53.411945]}},{"type":"Feature","properties":{"kind":"agi","label":"Gas Governor Kiosk","note":null,"surveyed":"20260604"},"geometry":{"type":"Point","coordinates":[-2.973765,53.447023]}},{"type":"Feature","properties":{"kind":"agi","label":"GOVERNOR SEE","note":"from drawing notes","surveyed":"20260604"},"geometry":{"type":"Point","coordinates":[-2.973995,53.447185]}},{"type":"Feature","properties":{"kind":"agi","label":"Gas Gov","note":null,"surveyed":"20260604"},"geometry":{"type":"Point","coordinates":[-2.966792,53.464521]}},{"type":"Feature","properties":{"kind":"agi","label":"Gas Gov","note":null,"surveyed":"20251218"},"geometry":{"type":"Point","coordinates":[-2.969932,53.473168]}},{"type":"Feature","properties":{"kind":"agi","label":"Gas Gov","note":null,"surveyed":"20260604"},"geometry":{"type":"Point","coordinates":[-2.962804,53.410575]}},{"type":"Feature","properties":{"kind":"agi","label":"Gas Gov","note":null,"surveyed":"20260604"},"geometry":{"type":"Point","coordinates":[-2.963106,53.46823]}},{"type":"Feature","properties":{"kind":"agi","label":"Gas Gov","note":null,"surveyed":"20260604"},"geometry":{"type":"Point","coordinates":[-2.95597,53.490303]}},{"type":"Feature","properties":{"kind":"agi","label":"Gas Gov","note":null,"surveyed":"20260604"},"geometry":{"type":"Point","coordinates":[-2.957406,53.487765]}},{"type":"Feature","properties":{"kind":"agi","label":"Gas Gov","note":null,"surveyed":"20251215"},"geometry":{"type":"Point","coordinates":[-2.93494,53.405972]}},{"type":"Feature","properties":{"kind":"agi","label":"Gas Gov","note":null,"surveyed":"20260604"},"geometry":{"type":"Point","coordinates":[-2.942044,53.403727]}},{"type":"Feature","properties":{"kind":"agi","label":"Gas Gov","note":null,"surveyed":"20260604"},"geometry":{"type":"Point","coordinates":[-2.937556,53.427093]}},{"type":"Feature","properties":{"kind":"agi","label":"GOVERNOR","note":"from drawing notes","surveyed":"20260604"},"geometry":{"type":"Point","coordinates":[-2.939657,53.453661]}},{"type":"Feature","properties":{"kind":"agi","label":"Gas Gov","note":null,"surveyed":"20251215"},"geometry":{"type":"Point","coordinates":[-2.944263,53.454382]}},{"type":"Feature","properties":{"kind":"agi","label":"Gas Governor","note":null,"surveyed":"20251215"},"geometry":{"type":"Point","coordinates":[-2.9473,53.451375]}},{"type":"Feature","properties":{"kind":"agi","label":"Gas Gov","note":null,"surveyed":"20260604"},"geometry":{"type":"Point","coordinates":[-2.949109,53.460052]}},{"type":"Feature","properties":{"kind":"agi","label":"Gas Gov","note":null,"surveyed":"20260113"},"geometry":{"type":"Point","coordinates":[-2.922766,53.407955]}},{"type":"Feature","properties":{"kind":"agi","label":"Gas Gov","note":null,"surveyed":"20260604"},"geometry":{"type":"Point","coordinates":[-2.931578,53.406742]}},{"type":"Feature","properties":{"kind":"agi","label":"Gas Valve","note":null,"surveyed":"20260604"},"geometry":{"type":"Point","coordinates":[-2.920299,53.455952]}},{"type":"Feature","properties":{"kind":"agi","label":"Gas Gov","note":null,"surveyed":"20260604"},"geometry":{"type":"Point","coordinates":[-2.930312,53.466958]}},{"type":"Feature","properties":{"kind":"agi","label":"Gas Gov","note":null,"surveyed":"20260604"},"geometry":{"type":"Point","coordinates":[-2.918563,53.409598]}},{"type":"Feature","properties":{"kind":"agi","label":"Gas Gov","note":null,"surveyed":"20260604"},"geometry":{"type":"Point","coordinates":[-2.910156,53.458234]}},{"type":"Feature","properties":{"kind":"agi","label":"Gas Gov","note":null,"surveyed":"20260116"},"geometry":{"type":"Point","coordinates":[-2.914069,53.488631]}},{"type":"Feature","properties":{"kind":"agi","label":"Gas Works Farm","note":null,"surveyed":"20260122"},"geometry":{"type":"Point","coordinates":[-2.878358,53.157765]}},{"type":"Feature","properties":{"kind":"agi","label":"Gas Gov","note":null,"surveyed":"20251215"},"geometry":{"type":"Point","coordinates":[-2.854805,53.187822]}},{"type":"Feature","properties":{"kind":"agi","label":"Gas Gov","note":null,"surveyed":"20260604"},"geometry":{"type":"Point","coordinates":[-2.862054,53.192812]}},{"type":"Feature","properties":{"kind":"agi","label":"Gas Gov","note":null,"surveyed":"20260603"},"geometry":{"type":"Point","coordinates":[-2.821905,53.223668]}},{"type":"Feature","properties":{"kind":"agi","label":"GVC","note":null,"surveyed":"20260604"},"geometry":{"type":"Point","coordinates":[-2.893026,53.26156]}},{"type":"Feature","properties":{"kind":"agi","label":"Gas Gov","note":null,"surveyed":"20260120"},"geometry":{"type":"Point","coordinates":[-2.890684,53.273917]}},{"type":"Feature","properties":{"kind":"agi","label":"GASWORKS SEE DRG. No.5071426/D","note":"from drawing notes","surveyed":"20260604"},"geometry":{"type":"Point","coordinates":[-2.887504,53.278931]}},{"type":"Feature","properties":{"kind":"agi","label":"GVC","note":null,"surveyed":"20251220"},"geometry":{"type":"Point","coordinates":[-2.901242,53.291858]}},{"type":"Feature","properties":{"kind":"agi","label":"Gas Valve Compound","note":null,"surveyed":"20260603"},"geometry":{"type":"Point","coordinates":[-2.872879,53.262649]}},{"type":"Feature","properties":{"kind":"agi","label":"Gas Gov","note":null,"surveyed":"20260115"},"geometry":{"type":"Point","coordinates":[-2.819251,53.270705]}},{"type":"Feature","properties":{"kind":"agi","label":"Gas Gov","note":null,"surveyed":"20260603"},"geometry":{"type":"Point","coordinates":[-2.773644,53.266732]}},{"type":"Feature","properties":{"kind":"agi","label":"GVC","note":null,"surveyed":"20201018"},"geometry":{"type":"Point","coordinates":[-2.774371,53.274883]}},{"type":"Feature","properties":{"kind":"agi","label":"Gas Gov","note":null,"surveyed":"20251218"},"geometry":{"type":"Point","coordinates":[-2.90074,53.362508]}},{"type":"Feature","properties":{"kind":"agi","label":"Gas Gov","note":null,"surveyed":"20251218"},"geometry":{"type":"Point","coordinates":[-2.878539,53.348192]}},{"type":"Feature","properties":{"kind":"agi","label":"Gas Gov","note":null,"surveyed":"20260123"},"geometry":{"type":"Point","coordinates":[-2.886126,53.348523]}},{"type":"Feature","properties":{"kind":"agi","label":"Gas Gov","note":null,"surveyed":"20260123"},"geometry":{"type":"Point","coordinates":[-2.885717,53.348772]}},{"type":"Feature","properties":{"kind":"agi","label":"Gas Gov","note":null,"surveyed":"20260123"},"geometry":{"type":"Point","coordinates":[-2.887172,53.348413]}},{"type":"Feature","properties":{"kind":"agi","label":"Gas Gov","note":null,"surveyed":"20251215"},"geometry":{"type":"Point","coordinates":[-2.87314,53.357775]}},{"type":"Feature","properties":{"kind":"agi","label":"Gas Gov","note":null,"surveyed":"20260604"},"geometry":{"type":"Point","coordinates":[-2.883983,53.365256]}},{"type":"Feature","properties":{"kind":"agi","label":"Gas Gov","note":null,"surveyed":"20221221"},"geometry":{"type":"Point","coordinates":[-2.874758,53.371204]}},{"type":"Feature","properties":{"kind":"agi","label":"Gas Governor","note":null,"surveyed":"20260604"},"geometry":{"type":"Point","coordinates":[-2.877595,53.382963]}},{"type":"Feature","properties":{"kind":"agi","label":"Gas Gov","note":null,"surveyed":"20251215"},"geometry":{"type":"Point","coordinates":[-2.858876,53.340912]}},{"type":"Feature","properties":{"kind":"agi","label":"Gas Gov","note":null,"surveyed":"20251215"},"geometry":{"type":"Point","coordinates":[-2.858061,53.343137]}},{"type":"Feature","properties":{"kind":"agi","label":"GVC","note":null,"surveyed":"20251215"},"geometry":{"type":"Point","coordinates":[-2.86717,53.356062]}},{"type":"Feature","properties":{"kind":"agi","label":"Gas Gov","note":null,"surveyed":"20251215"},"geometry":{"type":"Point","coordinates":[-2.864781,53.352057]}},{"type":"Feature","properties":{"kind":"agi","label":"Gas Gov","note":null,"surveyed":"20250919"},"geometry":{"type":"Point","coordinates":[-2.872722,53.353941]}},{"type":"Feature","properties":{"kind":"agi","label":"Gas Gov","note":null,"surveyed":"20260604"},"geometry":{"type":"Point","coordinates":[-2.843655,53.348998]}},{"type":"Feature","properties":{"kind":"agi","label":"Gas Gov","note":null,"surveyed":"20251215"},"geometry":{"type":"Point","coordinates":[-2.854151,53.355315]}},{"type":"Feature","properties":{"kind":"agi","label":"Gas Gov","note":null,"surveyed":"20251218"},"geometry":{"type":"Point","coordinates":[-2.855876,53.351454]}},{"type":"Feature","properties":{"kind":"agi","label":"Gas Governor","note":null,"surveyed":"20251218"},"geometry":{"type":"Point","coordinates":[-2.853185,53.35156]}},{"type":"Feature","properties":{"kind":"agi","label":"Gas Gov","note":null,"surveyed":"20251217"},"geometry":{"type":"Point","coordinates":[-2.830491,53.34791]}},{"type":"Feature","properties":{"kind":"agi","label":"GOVERNOR","note":"from drawing notes","surveyed":"20260113"},"geometry":{"type":"Point","coordinates":[-2.834436,53.355192]}},{"type":"Feature","properties":{"kind":"agi","label":"Gas Governor","note":null,"surveyed":"20230924"},"geometry":{"type":"Point","coordinates":[-2.834229,53.353704]}},{"type":"Feature","properties":{"kind":"agi","label":"Gas Governor","note":null,"surveyed":"20260121"},"geometry":{"type":"Point","coordinates":[-2.840095,53.373974]}},{"type":"Feature","properties":{"kind":"agi","label":"Gas Gov","note":null,"surveyed":"20260604"},"geometry":{"type":"Point","coordinates":[-2.836524,53.403526]}},{"type":"Feature","properties":{"kind":"agi","label":"Gas Gov","note":null,"surveyed":"20251217"},"geometry":{"type":"Point","coordinates":[-2.82481,53.39916]}},{"type":"Feature","properties":{"kind":"agi","label":"Gas Gov","note":null,"surveyed":"20260604"},"geometry":{"type":"Point","coordinates":[-2.809555,53.403097]}},{"type":"Feature","properties":{"kind":"agi","label":"Gas Gov","note":null,"surveyed":"20260604"},"geometry":{"type":"Point","coordinates":[-2.812396,53.401856]}},{"type":"Feature","properties":{"kind":"agi","label":"Gas Gov","note":null,"surveyed":"20260604"},"geometry":{"type":"Point","coordinates":[-2.770058,53.35285]}},{"type":"Feature","properties":{"kind":"agi","label":"GVC","note":null,"surveyed":"20251215"},"geometry":{"type":"Point","coordinates":[-2.759578,53.357866]}},{"type":"Feature","properties":{"kind":"agi","label":"GVC","note":null,"surveyed":"20260604"},"geometry":{"type":"Point","coordinates":[-2.76492,53.35431]}},{"type":"Feature","properties":{"kind":"agi","label":"Gas Gov","note":null,"surveyed":"20260604"},"geometry":{"type":"Point","coordinates":[-2.761216,53.38549]}},{"type":"Feature","properties":{"kind":"agi","label":"Gas Gov","note":null,"surveyed":"20251220"},"geometry":{"type":"Point","coordinates":[-2.754025,53.377773]}},{"type":"Feature","properties":{"kind":"agi","label":"Gas Gov","note":null,"surveyed":"20260604"},"geometry":{"type":"Point","coordinates":[-2.89917,53.404012]}},{"type":"Feature","properties":{"kind":"agi","label":"Gas Gov","note":null,"surveyed":"20251212"},"geometry":{"type":"Point","coordinates":[-2.896721,53.448227]}},{"type":"Feature","properties":{"kind":"agi","label":"Gas Gov","note":null,"surveyed":"20251217"},"geometry":{"type":"Point","coordinates":[-2.902668,53.443821]}},{"type":"Feature","properties":{"kind":"agi","label":"Gas Gov","note":null,"surveyed":"20260604"},"geometry":{"type":"Point","coordinates":[-2.8749,53.430241]}},{"type":"Feature","properties":{"kind":"agi","label":"Gas Gov","note":null,"surveyed":"20260130"},"geometry":{"type":"Point","coordinates":[-2.864383,53.465801]}},{"type":"Feature","properties":{"kind":"agi","label":"Gas Governor","note":null,"surveyed":"20251220"},"geometry":{"type":"Point","coordinates":[-2.868563,53.459404]}},{"type":"Feature","properties":{"kind":"agi","label":"Gas Gov","note":null,"surveyed":"20251215"},"geometry":{"type":"Point","coordinates":[-2.862204,53.483889]}},{"type":"Feature","properties":{"kind":"agi","label":"Gas Gov","note":null,"surveyed":"20251218"},"geometry":{"type":"Point","coordinates":[-2.863578,53.479952]}},{"type":"Feature","properties":{"kind":"agi","label":"Gas Gov","note":null,"surveyed":"20260604"},"geometry":{"type":"Point","coordinates":[-2.861551,53.486446]}},{"type":"Feature","properties":{"kind":"agi","label":"Gas Gov","note":null,"surveyed":"20260604"},"geometry":{"type":"Point","coordinates":[-2.847129,53.420469]}},{"type":"Feature","properties":{"kind":"agi","label":"Gas Gov","note":null,"surveyed":"20260211"},"geometry":{"type":"Point","coordinates":[-2.853004,53.465904]}},{"type":"Feature","properties":{"kind":"agi","label":"Gas Gov","note":null,"surveyed":"20260211"},"geometry":{"type":"Point","coordinates":[-2.852758,53.46657]}},{"type":"Feature","properties":{"kind":"agi","label":"GVC","note":null,"surveyed":"20260211"},"geometry":{"type":"Point","coordinates":[-2.858468,53.464815]}},{"type":"Feature","properties":{"kind":"agi","label":"GOVERNOR","note":"from drawing notes","surveyed":"20260206"},"geometry":{"type":"Point","coordinates":[-2.857617,53.474534]}},{"type":"Feature","properties":{"kind":"agi","label":"Gas Gov","note":null,"surveyed":"20251212"},"geometry":{"type":"Point","coordinates":[-2.852255,53.468899]}},{"type":"Feature","properties":{"kind":"agi","label":"Gas Gov","note":null,"surveyed":"20251215"},"geometry":{"type":"Point","coordinates":[-2.858245,53.469243]}},{"type":"Feature","properties":{"kind":"agi","label":"Gas Gov","note":null,"surveyed":"20260604"},"geometry":{"type":"Point","coordinates":[-2.827511,53.409407]}},{"type":"Feature","properties":{"kind":"agi","label":"Gas Gov","note":null,"surveyed":"20260604"},"geometry":{"type":"Point","coordinates":[-2.823187,53.408638]}},{"type":"Feature","properties":{"kind":"agi","label":"Gas Gov","note":null,"surveyed":"20260604"},"geometry":{"type":"Point","coordinates":[-2.822194,53.404867]}},{"type":"Feature","properties":{"kind":"agi","label":"GVC","note":null,"surveyed":"20250523"},"geometry":{"type":"Point","coordinates":[-2.819873,53.466734]}},{"type":"Feature","properties":{"kind":"agi","label":"Gas Gov","note":null,"surveyed":"20260604"},"geometry":{"type":"Point","coordinates":[-2.800856,53.408633]}},{"type":"Feature","properties":{"kind":"agi","label":"Gas Gov","note":null,"surveyed":"20260604"},"geometry":{"type":"Point","coordinates":[-2.784241,53.418855]}},{"type":"Feature","properties":{"kind":"agi","label":"Gas Gov","note":null,"surveyed":"20260604"},"geometry":{"type":"Point","coordinates":[-2.778129,53.452582]}},{"type":"Feature","properties":{"kind":"agi","label":"GVC","note":null,"surveyed":"20251217"},"geometry":{"type":"Point","coordinates":[-2.781734,53.492641]}},{"type":"Feature","properties":{"kind":"agi","label":"GOVERNOR","note":"from drawing notes","surveyed":"20251215"},"geometry":{"type":"Point","coordinates":[-2.754228,53.428562]}},{"type":"Feature","properties":{"kind":"agi","label":"Gas Gov","note":null,"surveyed":"20251215"},"geometry":{"type":"Point","coordinates":[-2.763553,53.430253]}},{"type":"Feature","properties":{"kind":"agi","label":"Gas Gov","note":null,"surveyed":"20260604"},"geometry":{"type":"Point","coordinates":[-2.757217,53.439919]}},{"type":"Feature","properties":{"kind":"agi","label":"Gas Gov","note":null,"surveyed":"20260604"},"geometry":{"type":"Point","coordinates":[-2.759163,53.45275]}},{"type":"Feature","properties":{"kind":"agi","label":"Gas Gov","note":null,"surveyed":"20260604"},"geometry":{"type":"Point","coordinates":[-2.76646,53.469205]}},{"type":"Feature","properties":{"kind":"agi","label":"GVC","note":null,"surveyed":"20260604"},"geometry":{"type":"Point","coordinates":[-2.765837,53.469668]}},{"type":"Feature","properties":{"kind":"agi","label":"Governor kiosk","note":"from drawing notes","surveyed":"20241221"},"geometry":{"type":"Point","coordinates":[-2.767793,53.47778]}},{"type":"Feature","properties":{"kind":"agi","label":"GVC","note":null,"surveyed":"20260110"},"geometry":{"type":"Point","coordinates":[-2.72382,53.298248]}},{"type":"Feature","properties":{"kind":"agi","label":"Governor","note":"from drawing notes","surveyed":"20251217"},"geometry":{"type":"Point","coordinates":[-2.601142,53.240144]}},{"type":"Feature","properties":{"kind":"agi","label":"Gas Gov","note":null,"surveyed":"20231212"},"geometry":{"type":"Point","coordinates":[-2.744673,53.354652]}},{"type":"Feature","properties":{"kind":"agi","label":"Gas Gov","note":null,"surveyed":"20250228"},"geometry":{"type":"Point","coordinates":[-2.747042,53.35092]}},{"type":"Feature","properties":{"kind":"agi","label":"Gas Gov","note":null,"surveyed":"20251220"},"geometry":{"type":"Point","coordinates":[-2.743181,53.381062]}},{"type":"Feature","properties":{"kind":"agi","label":"Gas Gov","note":null,"surveyed":"20260109"},"geometry":{"type":"Point","coordinates":[-2.73596,53.326366]}},{"type":"Feature","properties":{"kind":"agi","label":"GVC","note":null,"surveyed":"20260127"},"geometry":{"type":"Point","coordinates":[-2.711509,53.321124]}},{"type":"Feature","properties":{"kind":"agi","label":"GVC","note":null,"surveyed":"20260604"},"geometry":{"type":"Point","coordinates":[-2.719696,53.333972]}},{"type":"Feature","properties":{"kind":"agi","label":"Gas Gov","note":null,"surveyed":"20260604"},"geometry":{"type":"Point","coordinates":[-2.70954,53.34305]}},{"type":"Feature","properties":{"kind":"agi","label":"Gas Gov","note":null,"surveyed":"20260604"},"geometry":{"type":"Point","coordinates":[-2.698204,53.32523]}},{"type":"Feature","properties":{"kind":"agi","label":"GOVERNOR IN","note":"from drawing notes","surveyed":"20251218"},"geometry":{"type":"Point","coordinates":[-2.703034,53.369263]}},{"type":"Feature","properties":{"kind":"agi","label":"Gas Meter House","note":null,"surveyed":"20260203"},"geometry":{"type":"Point","coordinates":[-2.704791,53.382039]}},{"type":"Feature","properties":{"kind":"agi","label":"Gas Meter House","note":null,"surveyed":"20260129"},"geometry":{"type":"Point","coordinates":[-2.677761,53.318589]}},{"type":"Feature","properties":{"kind":"agi","label":"Gas Governor","note":null,"surveyed":"20260203"},"geometry":{"type":"Point","coordinates":[-2.668903,53.338665]}},{"type":"Feature","properties":{"kind":"agi","label":"Gas Governor","note":null,"surveyed":"20260203"},"geometry":{"type":"Point","coordinates":[-2.667166,53.337844]}},{"type":"Feature","properties":{"kind":"agi","label":"Gas Gov","note":null,"surveyed":"20251218"},"geometry":{"type":"Point","coordinates":[-2.657751,53.387526]}},{"type":"Feature","properties":{"kind":"agi","label":"Gas Gov","note":null,"surveyed":"20251220"},"geometry":{"type":"Point","coordinates":[-2.660229,53.401826]}},{"type":"Feature","properties":{"kind":"agi","label":"Gas Gov","note":null,"surveyed":"20260604"},"geometry":{"type":"Point","coordinates":[-2.648902,53.398457]}},{"type":"Feature","properties":{"kind":"agi","label":"Gas Gov","note":null,"surveyed":"20260604"},"geometry":{"type":"Point","coordinates":[-2.647583,53.387373]}},{"type":"Feature","properties":{"kind":"agi","label":"Gas Gov","note":null,"surveyed":"20251220"},"geometry":{"type":"Point","coordinates":[-2.618452,53.39595]}},{"type":"Feature","properties":{"kind":"agi","label":"Gas Gov","note":null,"surveyed":"20260604"},"geometry":{"type":"Point","coordinates":[-2.622027,53.400898]}},{"type":"Feature","properties":{"kind":"agi","label":"Gas Gov","note":null,"surveyed":"20260604"},"geometry":{"type":"Point","coordinates":[-2.62936,53.403663]}},{"type":"Feature","properties":{"kind":"agi","label":"Gas Gov","note":null,"surveyed":"20260604"},"geometry":{"type":"Point","coordinates":[-2.62092,53.398585]}},{"type":"Feature","properties":{"kind":"agi","label":"Gas Gov","note":null,"surveyed":"20260604"},"geometry":{"type":"Point","coordinates":[-2.627644,53.400611]}},{"type":"Feature","properties":{"kind":"agi","label":"GVC","note":null,"surveyed":"20260604"},"geometry":{"type":"Point","coordinates":[-2.603531,53.38424]}},{"type":"Feature","properties":{"kind":"agi","label":"GVC","note":null,"surveyed":"20260604"},"geometry":{"type":"Point","coordinates":[-2.615023,53.387667]}},{"type":"Feature","properties":{"kind":"agi","label":"GOVERNOR","note":"from drawing notes","surveyed":"20251212"},"geometry":{"type":"Point","coordinates":[-2.749395,53.406369]}},{"type":"Feature","properties":{"kind":"agi","label":"Gas Gov","note":null,"surveyed":"20260604"},"geometry":{"type":"Point","coordinates":[-2.741463,53.428064]}},{"type":"Feature","properties":{"kind":"agi","label":"Gas Gov","note":null,"surveyed":"20260604"},"geometry":{"type":"Point","coordinates":[-2.743861,53.468791]}},{"type":"Feature","properties":{"kind":"agi","label":"GAS GOV.","note":"from drawing notes","surveyed":"20260205"},"geometry":{"type":"Point","coordinates":[-2.732714,53.414184]}},{"type":"Feature","properties":{"kind":"agi","label":"Gas Gov","note":null,"surveyed":"20260122"},"geometry":{"type":"Point","coordinates":[-2.724606,53.430494]}},{"type":"Feature","properties":{"kind":"agi","label":"Gas Gov","note":null,"surveyed":"20260604"},"geometry":{"type":"Point","coordinates":[-2.726305,53.444361]}},{"type":"Feature","properties":{"kind":"agi","label":"GVC","note":null,"surveyed":"20251220"},"geometry":{"type":"Point","coordinates":[-2.725706,53.450029]}},{"type":"Feature","properties":{"kind":"agi","label":"Gas Gov","note":null,"surveyed":"20260604"},"geometry":{"type":"Point","coordinates":[-2.7374,53.453925]}},{"type":"Feature","properties":{"kind":"agi","label":"Gas Gov","note":null,"surveyed":"20260117"},"geometry":{"type":"Point","coordinates":[-2.709696,53.445968]}},{"type":"Feature","properties":{"kind":"agi","label":"GOVERNOR","note":"from drawing notes","surveyed":"20260604"},"geometry":{"type":"Point","coordinates":[-2.723474,53.45651]}},{"type":"Feature","properties":{"kind":"agi","label":"Gas Gov","note":null,"surveyed":"20260109"},"geometry":{"type":"Point","coordinates":[-2.705393,53.429049]}},{"type":"Feature","properties":{"kind":"agi","label":"Gas Valve","note":null,"surveyed":"20251215"},"geometry":{"type":"Point","coordinates":[-2.700386,53.461229]}},{"type":"Feature","properties":{"kind":"agi","label":"GVC","note":null,"surveyed":"20241221"},"geometry":{"type":"Point","coordinates":[-2.672187,53.455188]}},{"type":"Feature","properties":{"kind":"agi","label":"Gas Gov","note":null,"surveyed":"20251215"},"geometry":{"type":"Point","coordinates":[-2.660775,53.478103]}},{"type":"Feature","properties":{"kind":"agi","label":"Gas Valve","note":null,"surveyed":"20240625"},"geometry":{"type":"Point","coordinates":[-2.637,53.422645]}},{"type":"Feature","properties":{"kind":"agi","label":"Gas Gov","note":null,"surveyed":"20260604"},"geometry":{"type":"Point","coordinates":[-2.641461,53.471799]}},{"type":"Feature","properties":{"kind":"agi","label":"Gas Gov","note":null,"surveyed":"20260604"},"geometry":{"type":"Point","coordinates":[-2.627648,53.411806]}},{"type":"Feature","properties":{"kind":"agi","label":"GOVERNOR & KIOSK","note":"from drawing notes","surveyed":"20260604"},"geometry":{"type":"Point","coordinates":[-2.624078,53.417043]}},{"type":"Feature","properties":{"kind":"agi","label":"Gas Gov","note":null,"surveyed":"20260604"},"geometry":{"type":"Point","coordinates":[-2.613862,53.4156]}},{"type":"Feature","properties":{"kind":"agi","label":"Gas Gov","note":null,"surveyed":"20240131"},"geometry":{"type":"Point","coordinates":[-2.557076,53.22222]}},{"type":"Feature","properties":{"kind":"agi","label":"Gas Gov","note":null,"surveyed":"20260604"},"geometry":{"type":"Point","coordinates":[-2.543294,53.184674]}},{"type":"Feature","properties":{"kind":"agi","label":"Gas Governor","note":null,"surveyed":"20260604"},"geometry":{"type":"Point","coordinates":[-2.551998,53.184534]}},{"type":"Feature","properties":{"kind":"agi","label":"Gas Governor","note":null,"surveyed":"20260604"},"geometry":{"type":"Point","coordinates":[-2.551601,53.19124]}},{"type":"Feature","properties":{"kind":"agi","label":"Gas Gov","note":null,"surveyed":"20260604"},"geometry":{"type":"Point","coordinates":[-2.528887,53.177761]}},{"type":"Feature","properties":{"kind":"agi","label":"Gas Gov","note":null,"surveyed":"20260604"},"geometry":{"type":"Point","coordinates":[-2.534551,53.179191]}},{"type":"Feature","properties":{"kind":"agi","label":"Gas Gov","note":null,"surveyed":"20260205"},"geometry":{"type":"Point","coordinates":[-2.530143,53.187194]}},{"type":"Feature","properties":{"kind":"agi","label":"Gas Gov","note":null,"surveyed":"20260604"},"geometry":{"type":"Point","coordinates":[-2.532288,53.195303]}},{"type":"Feature","properties":{"kind":"agi","label":"Gas Gov","note":null,"surveyed":"20251217"},"geometry":{"type":"Point","coordinates":[-2.516298,53.199785]}},{"type":"Feature","properties":{"kind":"agi","label":"GAS GOV.","note":"from drawing notes","surveyed":"20251218"},"geometry":{"type":"Point","coordinates":[-2.502173,53.191401]}},{"type":"Feature","properties":{"kind":"agi","label":"GOVERNOR","note":"from drawing notes","surveyed":"20251215"},"geometry":{"type":"Point","coordinates":[-2.498982,53.203307]}},{"type":"Feature","properties":{"kind":"agi","label":"Gas Gov","note":null,"surveyed":"20251023"},"geometry":{"type":"Point","coordinates":[-2.493771,53.199098]}},{"type":"Feature","properties":{"kind":"agi","label":"Governor","note":"from drawing notes","surveyed":"20260603"},"geometry":{"type":"Point","coordinates":[-2.594133,53.234017]}},{"type":"Feature","properties":{"kind":"agi","label":"Governor","note":"from drawing notes","surveyed":"20251218"},"geometry":{"type":"Point","coordinates":[-2.599849,53.239642]}},{"type":"Feature","properties":{"kind":"agi","label":"Gas Gov","note":null,"surveyed":"20260604"},"geometry":{"type":"Point","coordinates":[-2.573807,53.261547]}},{"type":"Feature","properties":{"kind":"agi","label":"Gas Gov","note":null,"surveyed":"20251220"},"geometry":{"type":"Point","coordinates":[-2.541939,53.272038]}},{"type":"Feature","properties":{"kind":"agi","label":"Gas Gov","note":null,"surveyed":"20260604"},"geometry":{"type":"Point","coordinates":[-2.513213,53.260511]}},{"type":"Feature","properties":{"kind":"agi","label":"GVC","note":null,"surveyed":"20251224"},"geometry":{"type":"Point","coordinates":[-2.468913,53.251304]}},{"type":"Feature","properties":{"kind":"agi","label":"GOVERNOR","note":"from drawing notes","surveyed":"20251224"},"geometry":{"type":"Point","coordinates":[-2.472229,53.251682]}},{"type":"Feature","properties":{"kind":"agi","label":"Gas Gov","note":null,"surveyed":"20251218"},"geometry":{"type":"Point","coordinates":[-2.456976,53.273174]}},{"type":"Feature","properties":{"kind":"agi","label":"Governor","note":null,"surveyed":"20260604"},"geometry":{"type":"Point","coordinates":[-2.600039,53.371338]}},{"type":"Feature","properties":{"kind":"agi","label":"Gas Gov","note":null,"surveyed":"20260604"},"geometry":{"type":"Point","coordinates":[-2.597557,53.390609]}},{"type":"Feature","properties":{"kind":"agi","label":"Gas Valve Compound","note":null,"surveyed":"20260604"},"geometry":{"type":"Point","coordinates":[-2.596253,53.403213]}},{"type":"Feature","properties":{"kind":"agi","label":"GAS WORKS","note":"from drawing notes","surveyed":"20260604"},"geometry":{"type":"Point","coordinates":[-2.596179,53.403313]}},{"type":"Feature","properties":{"kind":"agi","label":"Gas Governor","note":null,"surveyed":"20251215"},"geometry":{"type":"Point","coordinates":[-2.574667,53.339998]}},{"type":"Feature","properties":{"kind":"agi","label":"Gas Gov","note":null,"surveyed":"20251023"},"geometry":{"type":"Point","coordinates":[-2.574012,53.363528]}},{"type":"Feature","properties":{"kind":"agi","label":"Gas Gov","note":null,"surveyed":"20260117"},"geometry":{"type":"Point","coordinates":[-2.571262,53.346884]}},{"type":"Feature","properties":{"kind":"agi","label":"Gas Gov","note":null,"surveyed":"20251220"},"geometry":{"type":"Point","coordinates":[-2.571709,53.359807]}},{"type":"Feature","properties":{"kind":"agi","label":"Gas Meter House","note":null,"surveyed":"20260604"},"geometry":{"type":"Point","coordinates":[-2.565737,53.35474]}},{"type":"Feature","properties":{"kind":"agi","label":"Gas Gov","note":null,"surveyed":"20260604"},"geometry":{"type":"Point","coordinates":[-2.570111,53.369848]}},{"type":"Feature","properties":{"kind":"agi","label":"Gas Governor","note":null,"surveyed":"20260604"},"geometry":{"type":"Point","coordinates":[-2.550132,53.386449]}},{"type":"Feature","properties":{"kind":"agi","label":"GVC","note":null,"surveyed":"20260604"},"geometry":{"type":"Point","coordinates":[-2.544591,53.379714]}},{"type":"Feature","properties":{"kind":"agi","label":"L/P GOVERNOR","note":"from drawing notes","surveyed":"20260604"},"geometry":{"type":"Point","coordinates":[-2.530308,53.402428]}},{"type":"Feature","properties":{"kind":"agi","label":"L/P GOVERNOR","note":"from drawing notes","surveyed":"20260604"},"geometry":{"type":"Point","coordinates":[-2.529981,53.40441]}},{"type":"Feature","properties":{"kind":"agi","label":"GVC","note":null,"surveyed":"20260604"},"geometry":{"type":"Point","coordinates":[-2.535269,53.398486]}},{"type":"Feature","properties":{"kind":"agi","label":"L/P GOVERNOR","note":"from drawing notes","surveyed":"20260204"},"geometry":{"type":"Point","coordinates":[-2.525759,53.402508]}},{"type":"Feature","properties":{"kind":"agi","label":"L/P GOVERNOR","note":"from drawing notes","surveyed":"20260204"},"geometry":{"type":"Point","coordinates":[-2.524815,53.403373]}},{"type":"Feature","properties":{"kind":"agi","label":"L/P GOVERNOR","note":"from drawing notes","surveyed":"20260204"},"geometry":{"type":"Point","coordinates":[-2.526435,53.402867]}},{"type":"Feature","properties":{"kind":"agi","label":"L/P GOVERNOR","note":"from drawing notes","surveyed":"20260604"},"geometry":{"type":"Point","coordinates":[-2.520413,53.399638]}},{"type":"Feature","properties":{"kind":"agi","label":"L/P GOVERNOR","note":"from drawing notes","surveyed":"20260604"},"geometry":{"type":"Point","coordinates":[-2.520407,53.399761]}},{"type":"Feature","properties":{"kind":"agi","label":"Governor","note":null,"surveyed":"20260604"},"geometry":{"type":"Point","coordinates":[-2.469926,53.381499]}},{"type":"Feature","properties":{"kind":"agi","label":"Gas Gov","note":null,"surveyed":"20260604"},"geometry":{"type":"Point","coordinates":[-2.594263,53.407122]}},{"type":"Feature","properties":{"kind":"agi","label":"Gas Gov","note":null,"surveyed":"20251218"},"geometry":{"type":"Point","coordinates":[-2.572479,53.479572]}},{"type":"Feature","properties":{"kind":"agi","label":"Gas Valve","note":null,"surveyed":"20260604"},"geometry":{"type":"Point","coordinates":[-2.54597,53.408149]}},{"type":"Feature","properties":{"kind":"agi","label":"GOVERNOR","note":"from drawing notes","surveyed":"20260604"},"geometry":{"type":"Point","coordinates":[-2.546729,53.40985]}},{"type":"Feature","properties":{"kind":"agi","label":"Gas Gov","note":null,"surveyed":"20260604"},"geometry":{"type":"Point","coordinates":[-2.539388,53.412231]}},{"type":"Feature","properties":{"kind":"agi","label":"L/P GOVERNOR","note":"from drawing notes","surveyed":"20260604"},"geometry":{"type":"Point","coordinates":[-2.529109,53.406695]}},{"type":"Feature","properties":{"kind":"agi","label":"Gas Gov","note":null,"surveyed":"20260604"},"geometry":{"type":"Point","coordinates":[-2.536557,53.408938]}},{"type":"Feature","properties":{"kind":"agi","label":"Gas Meter House","note":null,"surveyed":"20260604"},"geometry":{"type":"Point","coordinates":[-2.537265,53.407428]}},{"type":"Feature","properties":{"kind":"agi","label":"Gas Meter House","note":null,"surveyed":"20260604"},"geometry":{"type":"Point","coordinates":[-2.530506,53.421377]}},{"type":"Feature","properties":{"kind":"agi","label":"Gas Gov","note":null,"surveyed":"20260604"},"geometry":{"type":"Point","coordinates":[-2.536463,53.420137]}},{"type":"Feature","properties":{"kind":"agi","label":"GOVERNOR","note":"from drawing notes","surveyed":"20251218"},"geometry":{"type":"Point","coordinates":[-2.541976,53.479002]}},{"type":"Feature","properties":{"kind":"agi","label":"GVC","note":null,"surveyed":"20260204"},"geometry":{"type":"Point","coordinates":[-2.522277,53.414758]}},{"type":"Feature","properties":{"kind":"agi","label":"Gas Governor","note":null,"surveyed":"20260604"},"geometry":{"type":"Point","coordinates":[-2.51827,53.430702]}},{"type":"Feature","properties":{"kind":"agi","label":"GAS GOV","note":"from drawing notes","surveyed":"20201018"},"geometry":{"type":"Point","coordinates":[-2.526369,53.437987]}},{"type":"Feature","properties":{"kind":"agi","label":"Gas Gov","note":null,"surveyed":"20251218"},"geometry":{"type":"Point","coordinates":[-2.516653,53.488226]}},{"type":"Feature","properties":{"kind":"agi","label":"governor","note":"from drawing notes","surveyed":"20250621"},"geometry":{"type":"Point","coordinates":[-2.503071,53.47914]}},{"type":"Feature","properties":{"kind":"agi","label":"Gas Gov","note":null,"surveyed":"20260604"},"geometry":{"type":"Point","coordinates":[-2.509795,53.491245]}},{"type":"Feature","properties":{"kind":"agi","label":"Gas Valve","note":null,"surveyed":"20241221"},"geometry":{"type":"Point","coordinates":[-2.457928,53.407829]}},{"type":"Feature","properties":{"kind":"agi","label":"Gas Valve","note":null,"surveyed":"20241221"},"geometry":{"type":"Point","coordinates":[-2.459433,53.408296]}},{"type":"Feature","properties":{"kind":"agi","label":"Gas Gov","note":null,"surveyed":"20250820"},"geometry":{"type":"Point","coordinates":[-2.415885,53.138685]}},{"type":"Feature","properties":{"kind":"agi","label":"Gas Valve Compound","note":null,"surveyed":"20240228"},"geometry":{"type":"Point","coordinates":[-2.41521,53.168601]}},{"type":"Feature","properties":{"kind":"agi","label":"Gas Valve","note":null,"surveyed":"20240228"},"geometry":{"type":"Point","coordinates":[-2.41356,53.16953]}},{"type":"Feature","properties":{"kind":"agi","label":"Gas Meter House","note":null,"surveyed":"20251218"},"geometry":{"type":"Point","coordinates":[-2.395176,53.143084]}},{"type":"Feature","properties":{"kind":"agi","label":"Gas Gov","note":null,"surveyed":"20260603"},"geometry":{"type":"Point","coordinates":[-2.395413,53.148761]}},{"type":"Feature","properties":{"kind":"agi","label":"GVC","note":null,"surveyed":"20260603"},"geometry":{"type":"Point","coordinates":[-2.375592,53.292802]}},{"type":"Feature","properties":{"kind":"agi","label":"Gas Governor","note":null,"surveyed":"20250528"},"geometry":{"type":"Point","coordinates":[-2.375838,53.307949]}},{"type":"Feature","properties":{"kind":"agi","label":"Gas Gov","note":null,"surveyed":"20241128"},"geometry":{"type":"Point","coordinates":[-2.353045,53.304744]}},{"type":"Feature","properties":{"kind":"agi","label":"Gas Gov","note":null,"surveyed":"20260603"},"geometry":{"type":"Point","coordinates":[-2.359993,53.307852]}},{"type":"Feature","properties":{"kind":"agi","label":"GOVERNOR KIOSK","note":"from drawing notes","surveyed":"20260603"},"geometry":{"type":"Point","coordinates":[-2.445439,53.348131]}},{"type":"Feature","properties":{"kind":"agi","label":"GOVERNOR","note":"from drawing notes","surveyed":"20251220"},"geometry":{"type":"Point","coordinates":[-2.433553,53.343235]}},{"type":"Feature","properties":{"kind":"agi","label":"Gas Valve Compound","note":null,"surveyed":"20260603"},"geometry":{"type":"Point","coordinates":[-2.422198,53.392778]}},{"type":"Feature","properties":{"kind":"agi","label":"GVC","note":null,"surveyed":"20201018"},"geometry":{"type":"Point","coordinates":[-2.391724,53.318614]}},{"type":"Feature","properties":{"kind":"agi","label":"Gas Gov","note":null,"surveyed":"20260604"},"geometry":{"type":"Point","coordinates":[-2.368869,53.392215]}},{"type":"Feature","properties":{"kind":"agi","label":"GVC","note":null,"surveyed":"20260604"},"geometry":{"type":"Point","coordinates":[-2.358301,53.380232]}},{"type":"Feature","properties":{"kind":"agi","label":"Gas Gov","note":null,"surveyed":"20260604"},"geometry":{"type":"Point","coordinates":[-2.361085,53.404059]}},{"type":"Feature","properties":{"kind":"agi","label":"GVC","note":null,"surveyed":"20260604"},"geometry":{"type":"Point","coordinates":[-2.359527,53.400088]}},{"type":"Feature","properties":{"kind":"agi","label":"Gas Valve Compound","note":null,"surveyed":"20260604"},"geometry":{"type":"Point","coordinates":[-2.339303,53.385893]}},{"type":"Feature","properties":{"kind":"agi","label":"GVC","note":null,"surveyed":"20260604"},"geometry":{"type":"Point","coordinates":[-2.334252,53.398384]}},{"type":"Feature","properties":{"kind":"agi","label":"GOVERNOR IN PIT","note":"from drawing notes","surveyed":"20260604"},"geometry":{"type":"Point","coordinates":[-2.314839,53.366365]}},{"type":"Feature","properties":{"kind":"agi","label":"GVC","note":null,"surveyed":"20260604"},"geometry":{"type":"Point","coordinates":[-2.316261,53.388701]}},{"type":"Feature","properties":{"kind":"agi","label":"Gas Gov","note":null,"surveyed":"20251215"},"geometry":{"type":"Point","coordinates":[-2.429429,53.426034]}},{"type":"Feature","properties":{"kind":"agi","label":"Gas Gov","note":null,"surveyed":"20260604"},"geometry":{"type":"Point","coordinates":[-2.430673,53.427716]}},{"type":"Feature","properties":{"kind":"agi","label":"Gas Gov","note":null,"surveyed":"20251217"},"geometry":{"type":"Point","coordinates":[-2.427456,53.434887]}},{"type":"Feature","properties":{"kind":"agi","label":"GVC","note":null,"surveyed":"20260106"},"geometry":{"type":"Point","coordinates":[-2.429441,53.489334]}},{"type":"Feature","properties":{"kind":"agi","label":"Governor","note":null,"surveyed":"20260212"},"geometry":{"type":"Point","coordinates":[-2.421089,53.420519]}},{"type":"Feature","properties":{"kind":"agi","label":"Gas Gov","note":null,"surveyed":"20251218"},"geometry":{"type":"Point","coordinates":[-2.418534,53.448405]}},{"type":"Feature","properties":{"kind":"agi","label":"Gas Governor","note":null,"surveyed":"20260220"},"geometry":{"type":"Point","coordinates":[-2.363523,53.446302]}},{"type":"Feature","properties":{"kind":"agi","label":"Gas Gov","note":null,"surveyed":"20260220"},"geometry":{"type":"Point","coordinates":[-2.366968,53.443294]}},{"type":"Feature","properties":{"kind":"agi","label":"GOVERNOR","note":"from drawing notes","surveyed":"20251215"},"geometry":{"type":"Point","coordinates":[-2.35272,53.413251]}},{"type":"Feature","properties":{"kind":"agi","label":"Gas Gov","note":null,"surveyed":"20260604"},"geometry":{"type":"Point","coordinates":[-2.353727,53.422244]}},{"type":"Feature","properties":{"kind":"agi","label":"Gas Gov","note":null,"surveyed":"20260212"},"geometry":{"type":"Point","coordinates":[-2.354216,53.43005]}},{"type":"Feature","properties":{"kind":"agi","label":"Gas Gov","note":null,"surveyed":"20260604"},"geometry":{"type":"Point","coordinates":[-2.358061,53.456529]}},{"type":"Feature","properties":{"kind":"agi","label":"Gas Gov","note":null,"surveyed":"20260604"},"geometry":{"type":"Point","coordinates":[-2.357335,53.462834]}},{"type":"Feature","properties":{"kind":"agi","label":"Gas Gov","note":null,"surveyed":"20260604"},"geometry":{"type":"Point","coordinates":[-2.351118,53.493294]}},{"type":"Feature","properties":{"kind":"agi","label":"GOVERNOR","note":"from drawing notes","surveyed":"20251218"},"geometry":{"type":"Point","coordinates":[-2.338125,53.494527]}},{"type":"Feature","properties":{"kind":"agi","label":"Gas Gov","note":null,"surveyed":"20251218"},"geometry":{"type":"Point","coordinates":[-2.332174,53.461955]}},{"type":"Feature","properties":{"kind":"agi","label":"Gas Gov","note":null,"surveyed":"20251218"},"geometry":{"type":"Point","coordinates":[-2.328537,53.462644]}},{"type":"Feature","properties":{"kind":"agi","label":"GOVERNOR","note":"from drawing notes","surveyed":"20260604"},"geometry":{"type":"Point","coordinates":[-2.324432,53.473983]}},{"type":"Feature","properties":{"kind":"agi","label":"Gas Gov","note":null,"surveyed":"20260111"},"geometry":{"type":"Point","coordinates":[-2.306978,53.462771]}}]}